{"type": "FeatureCollection", "features": [{"type": "Feature", "geometry": {"type": "Point", "coordinates": [-111.2719958, 45.8238555]}, "properties": {"bridge": "yes", "hgv": "designated", "highway": "motorway", "lanes": "2", "layer": "1", "maxspeed": "75 mph", "oneway": "yes", "ref": "I 90", "tiger:cfcc": "A15", "tiger:county": "Gallatin, MT", "tiger:name_base": "I-90", "osm_id": 46596268, "display_name": "Unknown"}}, {"type": "Feature", "geometry": {"type": "Point", "coordinates": [-111.2720515, 45.8236256]}, "properties": {"bridge": "yes", "hgv": "designated", "highway": "motorway", "lanes": "2", "layer": "1", "maxspeed": "75 mph", "oneway": "yes", "ref": "I 90", "tiger:cfcc": "A15", "tiger:county": "Gallatin, MT", "tiger:name_base": "I-90", "osm_id": 46596269, "display_name": "Unknown"}}, {"type": "Feature", "geometry": {"type": "Point", "coordinates": [-111.2715639, 45.8250253]}, "properties": {"alt_name": "Ray Angel Bridge", "bridge": "yes", "ele": "1312", "gnis:feature_id": "1737895", "highway": "secondary", "lanes": "2", "layer": "1", "maxspeed": "70 mph", "maxspeed:conditional": "65 mph @ (dusk-dawn)", "maxspeed:hgv": "60 mph", "maxspeed:hgv:conditional": "55 mph @ (dusk-dawn)", "name": "Frontage Road", "sidewalk": "no", "source": "Bing;gnis", "surface": "concrete", "tiger:cfcc": "A31", "tiger:county": "Gallatin, MT", "tiger:name_base": "United States Highway 10", "tiger:name_base_1": "Frontage", "tiger:name_base_2": "Manhattan", "tiger:name_direction_prefix_2": "S", "tiger:name_type_1": "Rd", "tiger:reviewed": "no", "osm_id": 46596270, "display_name": "Frontage Road"}}, {"type": "Feature", "geometry": {"type": "Point", "coordinates": [-111.2717016, 45.8243295]}, "properties": {"bridge": "yes", "electrified": "no", "gauge": "1435", "layer": "1", "maxspeed": "60 mph", "name": "BNSF MRL 2nd Subdivision", "operator": "BNSF Railway", "operator:wikidata": "Q267122", "railway": "rail", "railway:ptc": "yes", "railway:track_class": "4", "usage": "main", "osm_id": 46596271, "display_name": "BNSF MRL 2nd Subdivision"}}, {"type": "Feature", "geometry": {"type": "Point", "coordinates": [-111.2487545, 45.8812502]}, "properties": {"bridge": "yes", "ele": "1288", "gnis:feature_id": "1737889", "highway": "unclassified", "layer": "1", "name": "Spaulding Bridge", "source": "Bing; gnis", "tiger:cfcc": "A41", "tiger:county": "Gallatin, MT", "tiger:name_base": "Spaulding Bridge", "tiger:name_type": "Rd", "osm_id": 61434002, "display_name": "Spaulding Bridge"}}, {"type": "Feature", "geometry": {"type": "Point", "coordinates": [-111.3314706, 45.8485865]}, "properties": {"bridge": "yes", "hgv": "designated", "highway": "motorway", "lanes": "2", "layer": "1", "maxspeed": "75 mph", "oneway": "yes", "ref": "I 90", "source": "yahoo", "tiger:cfcc": "A15", "tiger:county": "Gallatin, MT", "tiger:name_base": "I-90", "osm_id": 82616033, "display_name": "Unknown"}}, {"type": "Feature", "geometry": {"type": "Point", "coordinates": [-111.3263186, 45.8481223]}, "properties": {"bridge": "yes", "hgv": "designated", "highway": "motorway", "lanes": "2", "layer": "1", "maxspeed": "75 mph", "oneway": "yes", "ref": "I 90", "source": "yahoo", "tiger:cfcc": "A15", "tiger:county": "Gallatin, MT", "tiger:name_base": "I-90", "osm_id": 82616049, "display_name": "Unknown"}}, {"type": "Feature", "geometry": {"type": "Point", "coordinates": [-111.3315666, 45.8487952]}, "properties": {"bridge": "yes", "hgv": "designated", "highway": "motorway", "lanes": "2", "layer": "1", "maxspeed": "75 mph", "oneway": "yes", "ref": "I 90", "source": "yahoo", "tiger:cfcc": "A15", "tiger:county": "Gallatin, MT", "tiger:name_base": "I-90", "osm_id": 82616053, "display_name": "Unknown"}}, {"type": "Feature", "geometry": {"type": "Point", "coordinates": [-111.3382731, 45.849751]}, "properties": {"bridge": "yes", "highway": "secondary", "layer": "1", "name": "Churchill Road", "source": "yahoo", "surface": "asphalt", "tiger:cfcc": "A41", "tiger:county": "Gallatin, MT", "tiger:name_base": "Churchill", "tiger:name_type": "Rd", "osm_id": 82616056, "display_name": "Churchill Road"}}, {"type": "Feature", "geometry": {"type": "Point", "coordinates": [-111.3263184, 45.8479262]}, "properties": {"bridge": "yes", "hgv": "designated", "highway": "motorway", "lanes": "2", "layer": "1", "maxspeed": "75 mph", "oneway": "yes", "ref": "I 90", "source": "yahoo", "tiger:cfcc": "A15", "tiger:county": "Gallatin, MT", "tiger:name_base": "I-90", "osm_id": 82616059, "display_name": "Unknown"}}, {"type": "Feature", "geometry": {"type": "Point", "coordinates": [-111.3265693, 45.8455309]}, "properties": {"bridge": "yes", "highway": "unclassified", "layer": "1", "name": "Manhattan South", "source": "yahoo", "tiger:cfcc": "A41", "tiger:county": "Gallatin, MT", "tiger:name_base": "Manhattan South", "tiger:separated": "no", "tiger:source": "tiger_import_dch_v0.6_20070813", "tiger:tlid": "163554718:163532071:163554685:163554686:163493633", "tiger:upload_uuid": "bulk_upload.pl-ac5dd62a-ae5d-44fa-9d04-f55e4060eaa1", "osm_id": 82618455, "display_name": "Manhattan South"}}, {"type": "Feature", "geometry": {"type": "Point", "coordinates": [-111.2848965, 45.8307049]}, "properties": {"bridge": "yes", "hgv": "designated", "highway": "motorway", "lanes": "2", "layer": "1", "maxspeed": "75 mph", "oneway": "yes", "ref": "I 90", "source": "yahoo", "tiger:cfcc": "A15", "tiger:county": "Gallatin, MT", "tiger:name_base": "I-90", "osm_id": 82681652, "display_name": "Unknown"}}, {"type": "Feature", "geometry": {"type": "Point", "coordinates": [-111.2589753, 45.8168747]}, "properties": {"bridge": "yes", "hgv": "designated", "highway": "motorway", "lanes": "2", "layer": "1", "maxspeed": "75 mph", "oneway": "yes", "ref": "I 90", "source": "yahoo", "surface": "paved", "tiger:cfcc": "A15", "tiger:county": "Gallatin, MT", "tiger:name_base": "I-90", "osm_id": 82681653, "display_name": "Unknown"}}, {"type": "Feature", "geometry": {"type": "Point", "coordinates": [-111.2588245, 45.8170481]}, "properties": {"bridge": "yes", "hgv": "designated", "highway": "motorway", "lanes": "2", "layer": "1", "maxspeed": "75 mph", "oneway": "yes", "ref": "I 90", "source": "yahoo", "surface": "paved", "tiger:cfcc": "A15", "tiger:county": "Gallatin, MT", "tiger:name_base": "I-90", "osm_id": 82681664, "display_name": "Unknown"}}, {"type": "Feature", "geometry": {"type": "Point", "coordinates": [-111.3136881, 45.8467348]}, "properties": {"bridge": "yes", "highway": "secondary", "lanes": "2", "layer": "1", "maxspeed": "70 mph", "maxspeed:conditional": "65 mph @ (dusk-dawn)", "maxspeed:hgv": "60 mph", "maxspeed:hgv:conditional": "55 mph @ (dusk-dawn)", "name": "Frontage Road", "sidewalk": "no", "surface": "concrete", "tiger:cfcc": "A31", "tiger:county": "Gallatin, MT", "tiger:name_base": "United States Highway 10", "tiger:name_base_1": "Frontage", "tiger:name_base_2": "Manhattan", "tiger:name_direction_prefix_2": "S", "tiger:name_type_1": "Rd", "osm_id": 82681681, "display_name": "Frontage Road"}}, {"type": "Feature", "geometry": {"type": "Point", "coordinates": [-111.2850654, 45.8305424]}, "properties": {"bridge": "yes", "hgv": "designated", "highway": "motorway", "lanes": "2", "layer": "1", "maxspeed": "75 mph", "oneway": "yes", "ref": "I 90", "source": "yahoo", "tiger:cfcc": "A15", "tiger:county": "Gallatin, MT", "tiger:name_base": "I-90", "osm_id": 82681683, "display_name": "Unknown"}}, {"type": "Feature", "geometry": {"type": "Point", "coordinates": [-111.2996504, 45.8385751]}, "properties": {"bridge": "yes", "hgv": "designated", "highway": "motorway", "lanes": "2", "layer": "1", "maxspeed": "75 mph", "oneway": "yes", "ref": "I 90", "source": "Bing", "tiger:cfcc": "A15", "tiger:county": "Gallatin, MT", "tiger:name_base": "I-90", "osm_id": 89528305, "display_name": "Unknown"}}, {"type": "Feature", "geometry": {"type": "Point", "coordinates": [-111.2962147, 45.8367363]}, "properties": {"bridge": "yes", "hgv": "designated", "highway": "motorway", "lanes": "2", "layer": "1", "maxspeed": "75 mph", "oneway": "yes", "ref": "I 90", "source": "Bing", "tiger:cfcc": "A15", "tiger:county": "Gallatin, MT", "tiger:name_base": "I-90", "osm_id": 89528357, "display_name": "Unknown"}}, {"type": "Feature", "geometry": {"type": "Point", "coordinates": [-111.2957673, 45.8371458]}, "properties": {"bridge": "yes", "electrified": "no", "gauge": "1435", "layer": "1", "maxspeed": "60 mph", "name": "BNSF MRL 2nd Subdivision", "operator": "BNSF Railway", "operator:wikidata": "Q267122", "railway": "rail", "railway:ptc": "yes", "railway:track_class": "4", "source": "Bing", "usage": "main", "osm_id": 89528359, "display_name": "BNSF MRL 2nd Subdivision"}}, {"type": "Feature", "geometry": {"type": "Point", "coordinates": [-111.2997978, 45.8384195]}, "properties": {"bridge": "yes", "hgv": "designated", "highway": "motorway", "lanes": "2", "layer": "1", "maxspeed": "75 mph", "oneway": "yes", "ref": "I 90", "source": "Bing", "tiger:cfcc": "A15", "tiger:county": "Gallatin, MT", "tiger:name_base": "I-90", "osm_id": 89528365, "display_name": "Unknown"}}, {"type": "Feature", "geometry": {"type": "Point", "coordinates": [-111.2963659, 45.8365886]}, "properties": {"bridge": "yes", "hgv": "designated", "highway": "motorway", "lanes": "2", "layer": "1", "maxspeed": "75 mph", "oneway": "yes", "ref": "I 90", "source": "Bing", "tiger:cfcc": "A15", "tiger:county": "Gallatin, MT", "tiger:name_base": "I-90", "osm_id": 89528370, "display_name": "Unknown"}}, {"type": "Feature", "geometry": {"type": "Point", "coordinates": [-111.3148652, 45.8602867]}, "properties": {"bridge": "yes", "highway": "secondary", "layer": "1", "name": "West Dry Creek Road", "surface": "asphalt", "tiger:cfcc": "A41", "tiger:county": "Gallatin, MT", "tiger:name_base": "West Dry Creek", "tiger:name_base_1": "Dry Creek", "tiger:name_direction_prefix_1": "W", "tiger:name_type": "Rd", "tiger:name_type_1": "Rd", "osm_id": 93466131, "display_name": "West Dry Creek Road"}}, {"type": "Feature", "geometry": {"type": "Point", "coordinates": [-111.2909234, 45.8603163]}, "properties": {"bridge": "yes", "bridge:name": "Kinkle Bridge", "ele": "1290", "gnis:feature_id": "1737905", "highway": "secondary", "layer": "1", "name": "West Dry Creek Road", "source": "Bing; gnis", "tiger:cfcc": "A41", "tiger:county": "Gallatin, MT", "tiger:name_base": "West Dry Creek", "tiger:name_base_1": "Dry Creek", "tiger:name_direction_prefix_1": "W", "tiger:name_type": "Rd", "tiger:name_type_1": "Rd", "osm_id": 93466136, "display_name": "West Dry Creek Road"}}, {"type": "Feature", "geometry": {"type": "Point", "coordinates": [-111.2985263, 45.8602553]}, "properties": {"bridge": "yes", "highway": "secondary", "layer": "1", "name": "West Dry Creek Road", "source": "Bing", "tiger:cfcc": "A41", "tiger:county": "Gallatin, MT", "tiger:name_base": "West Dry Creek", "tiger:name_base_1": "Dry Creek", "tiger:name_direction_prefix_1": "W", "tiger:name_type": "Rd", "tiger:name_type_1": "Rd", "osm_id": 93466155, "display_name": "West Dry Creek Road"}}, {"type": "Feature", "geometry": {"type": "Point", "coordinates": [-111.3387331, 45.8901116]}, "properties": {"access": "private", "bridge": "yes", "highway": "service", "layer": "1", "source": "yahoo", "tiger:cfcc": "A74", "tiger:county": "Gallatin, MT", "tiger:source": "tiger_import_dch_v0.6_20070813", "tiger:tlid": "163525659", "tiger:upload_uuid": "bulk_upload.pl-ac5dd62a-ae5d-44fa-9d04-f55e4060eaa1", "osm_id": 93520616, "display_name": "Unknown"}}, {"type": "Feature", "geometry": {"type": "Point", "coordinates": [-111.3367157, 45.8915188]}, "properties": {"alt_name": "Nixon Bridge", "bridge": "yes", "ele": "1267", "gnis:feature_id": "1737926", "highway": "unclassified", "layer": "1", "name": "Gallatin River Bridge", "source": "yahoo; gnis", "tiger:cfcc": "A49", "tiger:county": "Gallatin, MT", "tiger:name_base": "Nixon Gulch", "tiger:name_type": "Rd", "osm_id": 93520618, "display_name": "Gallatin River Bridge"}}, {"type": "Feature", "geometry": {"type": "Point", "coordinates": [-111.3736924, 45.8786952]}, "properties": {"bridge": "yes", "electrified": "no", "gauge": "1435", "layer": "1", "maxspeed": "60 mph", "name": "BNSF MRL 2nd Subdivision", "operator": "BNSF Railway", "operator:wikidata": "Q267122", "railway": "rail", "railway:ptc": "yes", "railway:track_class": "4", "usage": "main", "osm_id": 295165347, "display_name": "BNSF MRL 2nd Subdivision"}}, {"type": "Feature", "geometry": {"type": "Point", "coordinates": [-111.2993068, 45.8390285]}, "properties": {"bridge": "yes", "electrified": "no", "gauge": "1435", "layer": "1", "maxspeed": "60 mph", "name": "BNSF MRL 2nd Subdivision", "operator": "BNSF Railway", "operator:wikidata": "Q267122", "railway": "rail", "railway:ptc": "yes", "railway:track_class": "4", "usage": "main", "osm_id": 295165351, "display_name": "BNSF MRL 2nd Subdivision"}}, {"type": "Feature", "geometry": {"type": "Point", "coordinates": [-111.2988428, 45.839392]}, "properties": {"bridge": "yes", "highway": "secondary", "lanes": "2", "layer": "1", "maxspeed": "70 mph", "maxspeed:conditional": "65 mph @ (dusk-dawn)", "maxspeed:hgv": "60 mph", "maxspeed:hgv:conditional": "55 mph @ (dusk-dawn)", "name": "Frontage Road", "sidewalk": "no", "surface": "asphalt", "tiger:cfcc": "A31", "tiger:county": "Gallatin, MT", "tiger:name_base": "United States Highway 10", "tiger:name_base_1": "Frontage", "tiger:name_base_2": "Manhattan", "tiger:name_direction_prefix_2": "S", "tiger:name_type_1": "Rd", "osm_id": 295165360, "display_name": "Frontage Road"}}, {"type": "Feature", "geometry": {"type": "Point", "coordinates": [-111.4061035, 45.8817732]}, "properties": {"bridge": "yes", "highway": "secondary", "lanes": "2", "layer": "1", "maxspeed": "70 mph", "maxspeed:conditional": "65 mph @ (dusk-dawn)", "maxspeed:hgv": "60 mph", "maxspeed:hgv:conditional": "55 mph @ (dusk-dawn)", "name": "Frontage Road", "sidewalk": "no", "surface": "asphalt", "tiger:cfcc": "A31", "tiger:county": "Gallatin, MT", "tiger:name_base": "United States Highway 10", "tiger:name_base_1": "Frontage", "tiger:name_type_1": "Rd", "osm_id": 295165361, "display_name": "Frontage Road"}}, {"type": "Feature", "geometry": {"type": "Point", "coordinates": [-111.3739874, 45.8783059]}, "properties": {"bridge": "yes", "highway": "secondary", "lanes": "2", "layer": "1", "maxspeed": "70 mph", "maxspeed:conditional": "65 mph @ (dusk-dawn)", "maxspeed:hgv": "60 mph", "maxspeed:hgv:conditional": "55 mph @ (dusk-dawn)", "name": "Frontage Road", "sidewalk": "no", "surface": "asphalt", "tiger:cfcc": "A31", "tiger:county": "Gallatin, MT", "tiger:name_base": "United States Highway 10", "tiger:name_base_1": "Frontage", "tiger:name_type_1": "Rd", "osm_id": 295165362, "display_name": "Frontage Road"}}, {"type": "Feature", "geometry": {"type": "Point", "coordinates": [-111.2954168, 45.8376702]}, "properties": {"bridge": "yes", "highway": "secondary", "lanes": "2", "layer": "1", "maxspeed": "70 mph", "maxspeed:conditional": "65 mph @ (dusk-dawn)", "maxspeed:hgv": "60 mph", "maxspeed:hgv:conditional": "55 mph @ (dusk-dawn)", "name": "Frontage Road", "sidewalk": "no", "surface": "asphalt", "tiger:cfcc": "A31", "tiger:county": "Gallatin, MT", "tiger:name_base": "United States Highway 10", "tiger:name_base_1": "Frontage", "tiger:name_base_2": "Manhattan", "tiger:name_direction_prefix_2": "S", "tiger:name_type_1": "Rd", "osm_id": 295165364, "display_name": "Frontage Road"}}, {"type": "Feature", "geometry": {"type": "Point", "coordinates": [-111.3120696, 45.8084044]}, "properties": {"access": "private", "bridge": "yes", "highway": "unclassified", "tiger:cfcc": "A74", "tiger:county": "Gallatin, MT", "tiger:reviewed": "no", "osm_id": 338729643, "display_name": "Unknown"}}, {"type": "Feature", "geometry": {"type": "Point", "coordinates": [-111.2612894, 45.8189388]}, "properties": {"bridge": "yes", "electrified": "no", "gauge": "1435", "layer": "1", "maxspeed": "60 mph", "name": "BNSF MRL 2nd Subdivision", "operator": "BNSF Railway", "operator:wikidata": "Q267122", "railway": "rail", "railway:ptc": "yes", "railway:track_class": "4", "usage": "main", "osm_id": 884001489, "display_name": "BNSF MRL 2nd Subdivision"}}, {"type": "Feature", "geometry": {"type": "Point", "coordinates": [-111.2687301, 45.8227868]}, "properties": {"bridge": "yes", "electrified": "no", "gauge": "1435", "layer": "1", "maxspeed": "60 mph", "name": "BNSF MRL 2nd Subdivision", "operator": "BNSF Railway", "operator:wikidata": "Q267122", "railway": "rail", "railway:ptc": "yes", "railway:track_class": "4", "usage": "main", "osm_id": 884001491, "display_name": "BNSF MRL 2nd Subdivision"}}, {"type": "Feature", "geometry": {"type": "Point", "coordinates": [-111.3754868, 45.8855925]}, "properties": {"bridge": "yes", "highway": "unclassified", "layer": "1", "osm_id": 893911425, "display_name": "Unknown"}}, {"type": "Feature", "geometry": {"type": "Point", "coordinates": [-111.3723982, 45.8843814]}, "properties": {"bridge": "yes", "highway": "unclassified", "layer": "1", "osm_id": 996710939, "display_name": "Unknown"}}, {"type": "Feature", "geometry": {"type": "Point", "coordinates": [-111.311797, 45.838472]}, "properties": {"bridge": "yes", "highway": "track", "layer": "1", "osm_id": 1031840267, "display_name": "Unknown"}}, {"type": "Feature", "geometry": {"type": "Point", "coordinates": [-111.2908732, 45.86022]}, "properties": {"bridge": "yes", "foot": "yes", "highway": "cycleway", "layer": "1", "osm_id": 1034205087, "display_name": "Unknown"}}, {"type": "Feature", "geometry": {"type": "Point", "coordinates": [-111.2984692, 45.8601756]}, "properties": {"bridge": "yes", "foot": "yes", "highway": "cycleway", "layer": "1", "osm_id": 1034205089, "display_name": "Unknown"}}, {"type": "Feature", "geometry": {"type": "Point", "coordinates": [-111.3650334, 45.8604895]}, "properties": {"bridge": "yes", "highway": "unclassified", "layer": "1", "name": "Manhattan Frontage Road South", "surface": "asphalt", "tiger:cfcc": "A43", "tiger:county": "Gallatin, MT", "tiger:name_base": "Manhattan Frontage", "tiger:name_direction_suffix": "S", "tiger:name_type": "Rd", "osm_id": 1042751293, "display_name": "Manhattan Frontage Road South"}}, {"type": "Feature", "geometry": {"type": "Point", "coordinates": [-111.3687098, 45.8636542]}, "properties": {"bridge": "yes", "highway": "unclassified", "layer": "1", "name": "Manhattan Frontage Road South", "surface": "asphalt", "tiger:cfcc": "A43", "tiger:county": "Gallatin, MT", "tiger:name_base": "Manhattan Frontage", "tiger:name_direction_suffix": "S", "tiger:name_type": "Rd", "osm_id": 1042751295, "display_name": "Manhattan Frontage Road South"}}, {"type": "Feature", "geometry": {"type": "Point", "coordinates": [-111.355553, 45.8697242]}, "properties": {"bridge": "yes", "highway": "unclassified", "layer": "1", "surface": "unpaved", "osm_id": 1049458247, "display_name": "Unknown"}}, {"type": "Feature", "geometry": {"type": "Point", "coordinates": [-111.2991937, 45.8569715]}, "properties": {"access": "private", "bridge": "yes", "highway": "service", "layer": "1", "service": "driveway", "osm_id": 1316940383, "display_name": "Unknown"}}, {"type": "Feature", "geometry": {"type": "Point", "coordinates": [-111.3374968, 45.8626407]}, "properties": {"bridge": "yes", "highway": "path", "layer": "1", "osm_id": 1375616823, "display_name": "Unknown"}}, {"type": "Feature", "geometry": {"type": "Point", "coordinates": [-111.3034899, 45.8931568]}, "properties": {"bridge": "yes", "highway": "service", "layer": "1", "osm_id": 1421597980, "display_name": "Unknown"}}, {"type": "Feature", "geometry": {"type": "Point", "coordinates": [-111.3103645, 45.8226499]}, "properties": {"access": "private", "bridge": "yes", "highway": "service", "layer": "1", "name": "Meadow View Road", "tiger:cfcc": "A74", "tiger:county": "Gallatin, MT", "tiger:name_base": "Meadow View", "tiger:name_type": "Rd", "tiger:reviewed": "no", "osm_id": 1447541183, "display_name": "Meadow View Road"}}, {"type": "Feature", "geometry": {"type": "Point", "coordinates": [-111.3106468, 45.8202484]}, "properties": {"access": "private", "bridge": "yes", "highway": "service", "layer": "1", "name": "Meadow View Road", "tiger:cfcc": "A74", "tiger:county": "Gallatin, MT", "tiger:name_base": "Meadow View", "tiger:name_type": "Rd", "tiger:reviewed": "no", "osm_id": 1447541185, "display_name": "Meadow View Road"}}]}