{"type": "FeatureCollection", "features": [{"type": "Feature", "geometry": {"type": "Point", "coordinates": [-111.2589366, 45.8185507]}, "properties": {"communication:mobile_phone": "yes", "man_made": "tower", "tower:type": "communication", "osm_id": 4526181910, "display_name": "tower"}}, {"type": "Feature", "geometry": {"type": "Point", "coordinates": [-111.3985573, 45.9133968]}, "properties": {"communication:mobile_phone": "yes", "man_made": "mast", "tower:construction": "monopole", "tower:type": "communication", "osm_id": 11253535802, "display_name": "mast"}}, {"type": "Feature", "geometry": {"type": "Point", "coordinates": [-111.3989452, 45.9131279]}, "properties": {"communication:mobile_phone": "yes", "man_made": "mast", "tower:construction": "monopole", "tower:type": "communication", "osm_id": 11253535803, "display_name": "mast"}}, {"type": "Feature", "geometry": {"type": "Point", "coordinates": [-111.247972, 45.8166551]}, "properties": {"man_made": "mast", "tower:type": "communication", "osm_id": 11863469103, "display_name": "mast"}}]}