{"type": "FeatureCollection", "features": [{"type": "Feature", "geometry": {"type": "Point", "coordinates": [-111.2499002, 45.8938823]}, "properties": {"ele": "1344", "gnis:feature_id": "771478", "landuse": "cemetery", "name": "Fly Cemetery", "osm_id": 817889374, "osm_type": "way", "display_name": "Fly Cemetery"}}, {"type": "Feature", "geometry": {"type": "Point", "coordinates": [-111.3096879, 45.8236995]}, "properties": {"ele": "1311", "gnis:feature_id": "774069", "landuse": "cemetery", "name": "Meadowview Cemetery", "osm_id": 818067464, "osm_type": "way", "display_name": "Meadowview Cemetery"}}]}