{"type": "FeatureCollection", "features": [{"type": "Feature", "geometry": {"type": "Point", "coordinates": [-111.332269, 45.8549307]}, "properties": {"amenity": "place_of_worship", "building": "church", "name": "Manhattan Bible Church", "religion": "christian", "osm_id": 338690605, "osm_type": "way", "display_name": "Manhattan Bible Church"}}, {"type": "Feature", "geometry": {"type": "Point", "coordinates": [-111.3275621, 45.8639935]}, "properties": {"amenity": "place_of_worship", "building": "church", "denomination": "baptist", "name": "Gallatin Valley Baptist Fellowship", "religion": "christian", "osm_id": 338704554, "osm_type": "way", "display_name": "Gallatin Valley Baptist Fellowship"}}, {"type": "Feature", "geometry": {"type": "Point", "coordinates": [-111.3303063, 45.8593605]}, "properties": {"amenity": "place_of_worship", "denomination": "presbyterian", "name": "Manhattan Presbyterian Church", "religion": "christian", "osm_id": 338788001, "osm_type": "way", "display_name": "Manhattan Presbyterian Church"}}, {"type": "Feature", "geometry": {"type": "Point", "coordinates": [-111.3280953, 45.8588532]}, "properties": {"amenity": "place_of_worship", "denomination": "episcopal", "name": "Gethsemane Episcopal Church", "religion": "christian", "osm_id": 338788002, "osm_type": "way", "display_name": "Gethsemane Episcopal Church"}}]}