{"type": "FeatureCollection", "features": [{"type": "Feature", "geometry": {"type": "Point", "coordinates": [-111.3317016, 45.8537225]}, "properties": {"amenity": "police", "name": "Manhattan Police Department", "display_name": "Manhattan Police Department", "phone": "406-284-6630", "addr:street": "207 S 6th St"}}, {"type": "Feature", "geometry": {"type": "Point", "coordinates": [-111.3299709, 45.8565826]}, "properties": {"amenity": "post_office", "name": "Manhattan Post Office", "display_name": "Manhattan Post Office", "operator": "United States Postal Service"}}, {"type": "Feature", "geometry": {"type": "Point", "coordinates": [-111.331091, 45.8551427]}, "properties": {"amenity": "fire_station", "name": "Manhattan Volunteer Fire Department", "display_name": "Manhattan Volunteer Fire Department", "phone": "406-284-6224"}}, {"type": "Feature", "geometry": {"type": "Point", "coordinates": [-111.3360, 45.8612]}, "properties": {"amenity": "townhall", "name": "Manhattan Town Hall", "display_name": "Manhattan Town Hall", "phone": "406-284-3235", "addr:street": "207 S 6th St", "email": "townofmanhattan@gmail.com"}}, {"type": "Feature", "geometry": {"type": "Point", "coordinates": [-111.3342, 45.8618]}, "properties": {"amenity": "community_centre", "name": "Manhattan Area Chamber of Commerce", "display_name": "Manhattan Area Chamber of Commerce", "phone": "406-284-4162", "addr:street": "103 S Broadway"}}, {"type": "Feature", "geometry": {"type": "Point", "coordinates": [-111.3330, 45.8610]}, "properties": {"amenity": "community_centre", "name": "Manhattan City Court", "display_name": "Manhattan City Court", "phone": "406-284-3235", "addr:street": "207 S 6th St"}}]}
