{"type": "FeatureCollection", "features": [{"type": "Feature", "geometry": {"type": "LineString", "coordinates": [[-111.2775349, 45.826175], [-111.2789978, 45.8269943], [-111.2825459, 45.8288611]]}, "properties": {"NHD:ComID": "3851415", "NHD:FCode": "33600", "NHD:FType": "CanalDitch", "NHD:ReachCode": "10020008000664", "NHD:way_id": "3851415", "attribution": "NHD", "source": "NHD_import_v0.3_20090818122332", "waterway": "ditch", "osm_id": 39277631, "osm_type": "way", "display_name": "Unknown"}}, {"type": "Feature", "geometry": {"type": "LineString", "coordinates": [[-111.367485, 45.846009], [-111.367485, 45.846398], [-111.367256, 45.846695]]}, "properties": {"NHD:ComID": "3851255", "NHD:FCode": "33600", "NHD:FType": "CanalDitch", "NHD:ReachCode": "10020008002357", "NHD:way_id": "3851255", "attribution": "NHD", "source": "NHD_import_v0.3_20090818122332", "waterway": "ditch", "osm_id": 39278543, "osm_type": "way", "display_name": "Unknown"}}, {"type": "Feature", "geometry": {"type": "LineString", "coordinates": [[-111.381026, 45.826692], [-111.380797, 45.826463], [-111.380372, 45.826257], [-111.379097, 45.8266], [-111.378639, 45.826646], [-111.378279, 45.826646], [-111.37792, 45.826509], [-111.377396, 45.826006], [-111.376906, 45.825617], [-111.375794, 45.825251], [-111.374878, 45.825], [-111.374584, 45.824703], [-111.374486, 45.824154], [-111.37429, 45.823811], [-111.374028, 45.823582], [-111.372949, 45.823217], [-111.372459, 45.822897], [-111.372328, 45.822622], [-111.372295, 45.822394], [-111.372393, 45.822005], [-111.372491, 45.821594], [-111.372361, 45.821479]]}, "properties": {"NHD:ComID": "3851503", "NHD:FCode": "33600", "NHD:FType": "CanalDitch", "NHD:ReachCode": "10020008002815", "NHD:way_id": "3851503", "attribution": "NHD", "source": "NHD_import_v0.3_20090818122332", "waterway": "ditch", "osm_id": 39278670, "osm_type": "way", "display_name": "Unknown"}}, {"type": "Feature", "geometry": {"type": "LineString", "coordinates": [[-111.3475789, 45.839172], [-111.3476486, 45.8393226], [-111.3476092, 45.8394605], [-111.347202, 45.8398275], [-111.3475, 45.840885], [-111.347827, 45.841457], [-111.347893, 45.841846], [-111.347925, 45.842623], [-111.348121, 45.842989], [-111.3482312, 45.8433177], [-111.3483734, 45.8433978], [-111.3487449, 45.8434723], [-111.3492358, 45.8433641], [-111.3501315, 45.8430686], [-111.350476, 45.842966], [-111.351098, 45.843149], [-111.352275, 45.843927], [-111.352635, 45.844041], [-111.353125, 45.844041], [-111.354139, 45.844156], [-111.355022, 45.844476], [-111.355775, 45.844796], [-111.35692, 45.844774], [-111.357737, 45.845048], [-111.3584137, 45.8455417], [-111.3585641, 45.8459264], [-111.358914, 45.846557], [-111.359111, 45.846877], [-111.359503, 45.847243], [-111.359961, 45.847517], [-111.360354, 45.847632], [-111.361597, 45.847541], [-111.362153, 45.847403], [-111.362742, 45.846992], [-111.363429, 45.846398], [-111.364214, 45.84562], [-111.364672, 45.845209], [-111.364868, 45.845163], [-111.36549, 45.845186], [-111.365981, 45.845323], [-111.366406, 45.845781], [-111.366864, 45.845986], [-111.367485, 45.846009]]}, "properties": {"NHD:ComID": "3851315", "NHD:FCode": "33600", "NHD:FType": "CanalDitch", "NHD:ReachCode": "10020008000623", "NHD:way_id": "3851315", "attribution": "NHD", "source": "NHD_import_v0.3_20090818122332", "waterway": "ditch", "osm_id": 39278705, "osm_type": "way", "display_name": "Unknown"}}, {"type": "Feature", "geometry": {"type": "LineString", "coordinates": [[-111.2825459, 45.8288611], [-111.2834628, 45.8293485], [-111.2843771, 45.8298421], [-111.2851572, 45.8302709]]}, "properties": {"NHD:ComID": "3851409", "NHD:FCode": "33600", "NHD:FType": "CanalDitch", "NHD:ReachCode": "10020008000663", "NHD:way_id": "3851409", "attribution": "NHD", "source": "NHD_import_v0.3_20090818122332", "waterway": "ditch", "osm_id": 39278773, "osm_type": "way", "display_name": "Unknown"}}, {"type": "Feature", "geometry": {"type": "LineString", "coordinates": [[-111.360166, 45.813042], [-111.360362, 45.813683], [-111.360558, 45.814117], [-111.361408, 45.814894], [-111.361735, 45.815443], [-111.362095, 45.815717], [-111.362454, 45.815763], [-111.363501, 45.815718], [-111.363828, 45.815946], [-111.36386, 45.816152], [-111.363664, 45.816289]]}, "properties": {"NHD:ComID": "3851635", "NHD:FCode": "33600", "NHD:FType": "CanalDitch", "NHD:ReachCode": "10020008002312", "NHD:way_id": "3851635", "attribution": "NHD", "source": "NHD_import_v0.3_20090818122332", "waterway": "ditch", "osm_id": 39278804, "osm_type": "way", "display_name": "Unknown"}}, {"type": "Feature", "geometry": {"type": "LineString", "coordinates": [[-111.2530516, 45.800048], [-111.253091, 45.800107], [-111.25345, 45.800336], [-111.253515, 45.800496], [-111.253711, 45.800748], [-111.253678, 45.800839], [-111.253809, 45.800885], [-111.253841, 45.801091], [-111.254654, 45.802852], [-111.254687, 45.802921], [-111.2559327, 45.8054162], [-111.2557544, 45.8055994], [-111.2574232, 45.8090496]]}, "properties": {"NHD:ComID": "3853711", "NHD:FCode": "33600", "NHD:FType": "CanalDitch", "NHD:ReachCode": "10020008002833", "NHD:way_id": "3853711", "attribution": "NHD", "source": "NHD_import_v0.3_20090818122332", "waterway": "ditch", "osm_id": 39279154, "osm_type": "way", "display_name": "Unknown"}}, {"type": "Feature", "geometry": {"type": "LineString", "coordinates": [[-111.336839, 45.790884], [-111.336805, 45.79205], [-111.33687, 45.792279], [-111.337034, 45.792507], [-111.337556, 45.792805], [-111.337916, 45.792988], [-111.338536, 45.793399], [-111.338667, 45.793605], [-111.3387, 45.793788], [-111.338699, 45.794085], [-111.338143, 45.794611], [-111.337849, 45.794931], [-111.337751, 45.795251], [-111.337848, 45.79596], [-111.337914, 45.796074], [-111.338044, 45.79692], [-111.33788, 45.797789], [-111.3374377, 45.7995768], [-111.337449, 45.8005698], [-111.3374887, 45.8011532], [-111.3374573, 45.8013155], [-111.3372473, 45.8018015], [-111.3371019, 45.802211], [-111.3371783, 45.8023505]]}, "properties": {"NHD:ComID": "3851799", "NHD:FCode": "33600", "NHD:FType": "CanalDitch", "NHD:ReachCode": "10020008000639", "NHD:way_id": "3851799", "attribution": "NHD", "source": "NHD_import_v0.3_20090818122332", "waterway": "ditch", "osm_id": 39279249, "osm_type": "way", "display_name": "Unknown"}}, {"type": "Feature", "geometry": {"type": "LineString", "coordinates": [[-111.3371783, 45.8023505], [-111.3367722, 45.8025939], [-111.3363643, 45.803302], [-111.3356157, 45.8036399], [-111.3352372, 45.8039137], [-111.3350893, 45.8040556], [-111.3349959, 45.8042561], [-111.3347108, 45.8044754]]}, "properties": {"NHD:ComID": "3851715", "NHD:FCode": "33600", "NHD:FType": "CanalDitch", "NHD:ReachCode": "10020008002327", "NHD:way_id": "3851715", "attribution": "NHD", "source": "NHD_import_v0.3_20090818122332", "waterway": "ditch", "osm_id": 39279948, "osm_type": "way", "display_name": "Unknown"}}, {"type": "Feature", "geometry": {"type": "LineString", "coordinates": [[-111.276827, 45.8258505], [-111.2775349, 45.826175]]}, "properties": {"NHD:ComID": "3851433", "NHD:FCode": "33600", "NHD:FType": "CanalDitch", "NHD:ReachCode": "10020008000665", "NHD:way_id": "3851433", "attribution": "NHD", "source": "NHD_import_v0.3_20090818122332", "waterway": "ditch", "osm_id": 39280405, "osm_type": "way", "display_name": "Unknown"}}, {"type": "Feature", "geometry": {"type": "LineString", "coordinates": [[-111.390315, 45.833961], [-111.38953, 45.834006]]}, "properties": {"NHD:ComID": "3851371", "NHD:FCode": "33600", "NHD:FType": "CanalDitch", "NHD:ReachCode": "10020008002359", "NHD:way_id": "3851371", "attribution": "NHD", "source": "NHD_import_v0.3_20090818122332", "waterway": "ditch", "osm_id": 39281203, "osm_type": "way", "display_name": "Unknown"}}, {"type": "Feature", "geometry": {"type": "LineString", "coordinates": [[-111.381026, 45.826692], [-111.381419, 45.827126], [-111.381582, 45.827469], [-111.381648, 45.82756], [-111.381713, 45.827835], [-111.381877, 45.828132], [-111.382531, 45.828497], [-111.382923, 45.828932], [-111.383447, 45.829206], [-111.383937, 45.82916], [-111.385049, 45.828794], [-111.385605, 45.828703], [-111.386259, 45.828749], [-111.386422, 45.828794], [-111.386422, 45.828932]]}, "properties": {"NHD:ComID": "3851423", "NHD:FCode": "33600", "NHD:FType": "CanalDitch", "NHD:ReachCode": "10020008002317", "NHD:way_id": "3851423", "attribution": "NHD", "source": "NHD_import_v0.3_20090818122332", "waterway": "ditch", "osm_id": 39281209, "osm_type": "way", "display_name": "Unknown"}}, {"type": "Feature", "geometry": {"type": "LineString", "coordinates": [[-111.377463, 45.857074], [-111.377725, 45.85728], [-111.377856, 45.857623], [-111.37815, 45.85792], [-111.379066, 45.858675], [-111.379557, 45.858903], [-111.380277, 45.859063], [-111.381259, 45.859086], [-111.38175, 45.859178], [-111.382339, 45.859543], [-111.38319, 45.860138], [-111.384237, 45.860526], [-111.385513, 45.860732], [-111.386233, 45.86064], [-111.386789, 45.86032], [-111.386854, 45.86016], [-111.38692, 45.860114], [-111.38692, 45.860023], [-111.387279, 45.859726], [-111.387574, 45.859611], [-111.389472, 45.859383], [-111.389766, 45.859565], [-111.38993, 45.85984], [-111.38993, 45.860937], [-111.390028, 45.861006], [-111.390061, 45.861189], [-111.390454, 45.861737], [-111.390879, 45.862217], [-111.391272, 45.862469], [-111.391829, 45.862491], [-111.392352, 45.862331], [-111.392516, 45.86224], [-111.392548, 45.861966], [-111.392646, 45.86192], [-111.392744, 45.861051], [-111.39281, 45.860982], [-111.392875, 45.860685], [-111.393562, 45.859954], [-111.393627, 45.859702], [-111.393889, 45.859405], [-111.394576, 45.858947], [-111.395361, 45.858444], [-111.396113, 45.857941], [-111.396899, 45.85753]]}, "properties": {"NHD:ComID": "3851177", "NHD:FCode": "33600", "NHD:FType": "CanalDitch", "NHD:ReachCode": "10020008000554", "NHD:way_id": "3851177", "attribution": "NHD", "source": "NHD_import_v0.3_20090818122332", "waterway": "ditch", "osm_id": 39281558, "osm_type": "way", "display_name": "Unknown"}}, {"type": "Feature", "geometry": {"type": "LineString", "coordinates": [[-111.391438, 45.868847], [-111.391503, 45.869053], [-111.391438, 45.869373], [-111.3900862, 45.8702474], [-111.3891708, 45.8714677], [-111.3888204, 45.8720519]]}, "properties": {"NHD:ComID": "3851045", "NHD:FCode": "33600", "NHD:FType": "CanalDitch", "NHD:ReachCode": "10020008000552", "NHD:way_id": "3851045", "attribution": "NHD", "source": "NHD_import_v0.3_20090818122332", "waterway": "ditch", "osm_id": 39282049, "osm_type": "way", "display_name": "Unknown"}}, {"type": "Feature", "geometry": {"type": "LineString", "coordinates": [[-111.2855786, 45.8305147], [-111.2861908, 45.8307485], [-111.287017, 45.8312586], [-111.2882089, 45.8318808], [-111.2886392, 45.8321378], [-111.2891568, 45.832447], [-111.2898239, 45.8327771]]}, "properties": {"NHD:ComID": "3851393", "NHD:FCode": "33600", "NHD:FType": "CanalDitch", "NHD:ReachCode": "10020008000661", "NHD:way_id": "3851393", "attribution": "NHD", "source": "NHD_import_v0.3_20090818122332", "waterway": "ditch", "osm_id": 39282826, "osm_type": "way", "display_name": "Unknown"}}, {"type": "Feature", "geometry": {"type": "LineString", "coordinates": [[-111.390315, 45.833961], [-111.390283, 45.834235], [-111.389858, 45.834624], [-111.38976, 45.835195], [-111.390381, 45.83595], [-111.39097, 45.836361], [-111.391395, 45.836521], [-111.392082, 45.837047], [-111.392769, 45.837435], [-111.392998, 45.837709], [-111.392999, 45.838395], [-111.392901, 45.838578], [-111.392901, 45.839378], [-111.392999, 45.839561], [-111.393392, 45.839813], [-111.394111, 45.83995], [-111.396074, 45.839927], [-111.396401, 45.839812], [-111.39712, 45.839835], [-111.397807, 45.840086], [-111.398265, 45.840315], [-111.39928, 45.840703], [-111.399836, 45.840955], [-111.400621, 45.841023]]}, "properties": {"NHD:ComID": "3851373", "NHD:FCode": "33600", "NHD:FType": "CanalDitch", "NHD:ReachCode": "10020008000556", "NHD:way_id": "3851373", "attribution": "NHD", "source": "NHD_import_v0.3_20090818122332", "waterway": "ditch", "osm_id": 39283119, "osm_type": "way", "display_name": "Unknown"}}, {"type": "Feature", "geometry": {"type": "LineString", "coordinates": [[-111.337223, 45.802635], [-111.3371783, 45.8023505]]}, "properties": {"NHD:ComID": "3851717", "NHD:FCode": "33600", "NHD:FType": "CanalDitch", "NHD:ReachCode": "10020008002326", "NHD:way_id": "3851717", "attribution": "NHD", "source": "NHD_import_v0.3_20090818122332", "waterway": "ditch", "osm_id": 39283142, "osm_type": "way", "display_name": "Unknown"}}, {"type": "Feature", "geometry": {"type": "LineString", "coordinates": [[-111.2947641, 45.835431], [-111.2959058, 45.8359884], [-111.2965861, 45.8362977]]}, "properties": {"NHD:ComID": "3851357", "NHD:FCode": "33600", "NHD:FType": "CanalDitch", "NHD:ReachCode": "10020008000659", "NHD:way_id": "3851357", "attribution": "NHD", "source": "NHD_import_v0.3_20090818122332", "waterway": "ditch", "osm_id": 39283297, "osm_type": "way", "display_name": "Unknown"}}, {"type": "Feature", "geometry": {"type": "LineString", "coordinates": [[-111.377463, 45.857074], [-111.3776285, 45.8567776], [-111.3774553, 45.8566101], [-111.3770197, 45.8564931], [-111.3763556, 45.8564009], [-111.3759077, 45.8561936], [-111.3757688, 45.8560123], [-111.3756502, 45.8556893], [-111.3754731, 45.8554744], [-111.3750783, 45.8552953], [-111.3745918, 45.8551952], [-111.3742339, 45.8551111], [-111.3738741, 45.8550059], [-111.373341, 45.854948], [-111.3725978, 45.85497], [-111.3720617, 45.8551902], [-111.3718039, 45.85531], [-111.3715377, 45.8552343], [-111.3715938, 45.8548656], [-111.371803, 45.854605], [-111.3718533, 45.854498], [-111.3715201, 45.8535949], [-111.371149, 45.853371], [-111.3709934, 45.8531532], [-111.371079, 45.8528792], [-111.3712528, 45.852685], [-111.3712851, 45.8524982], [-111.3712086, 45.8523339], [-111.3709941, 45.8522094], [-111.3705769, 45.8524404], [-111.3701755, 45.8526205], [-111.3698727, 45.8525974], [-111.369676, 45.852296], [-111.369578, 45.852182], [-111.36948, 45.851999], [-111.369251, 45.851771], [-111.368531, 45.851565], [-111.368073, 45.851336], [-111.368041, 45.850947], [-111.368368, 45.85049], [-111.369153, 45.849736], [-111.369677, 45.849347], [-111.369939, 45.848936], [-111.369971, 45.848547], [-111.369906, 45.848433], [-111.369513, 45.84841], [-111.367714, 45.849347], [-111.3672173, 45.8495971], [-111.3668845, 45.8497001], [-111.3666809, 45.8497054], [-111.3665146, 45.8496045], [-111.3665106, 45.8492343], [-111.366634, 45.848775], [-111.36706, 45.847907], [-111.366994, 45.847747], [-111.366929, 45.847335], [-111.367256, 45.846695]]}, "properties": {"NHD:ComID": "3851251", "NHD:FCode": "33600", "NHD:FType": "CanalDitch", "NHD:ReachCode": "10020008002814", "NHD:way_id": "3851251", "attribution": "NHD", "source": "NHD_import_v0.3_20090818122332", "waterway": "ditch", "osm_id": 39283469, "osm_type": "way", "display_name": "Unknown"}}, {"type": "Feature", "geometry": {"type": "LineString", "coordinates": [[-111.2736522, 45.8241264], [-111.2740158, 45.8243219], [-111.276827, 45.8258505]]}, "properties": {"NHD:ComID": "3851445", "NHD:FCode": "33600", "NHD:FType": "CanalDitch", "NHD:ReachCode": "10020008000666", "NHD:way_id": "3851445", "attribution": "NHD", "source": "NHD_import_v0.3_20090818122332", "waterway": "ditch", "osm_id": 39283552, "osm_type": "way", "display_name": "Unknown"}}, {"type": "Feature", "geometry": {"type": "LineString", "coordinates": [[-111.3344332, 45.8047285], [-111.3342465, 45.805086], [-111.3343065, 45.8052143], [-111.3346357, 45.8053503], [-111.3347148, 45.805474], [-111.3348363, 45.8057043], [-111.3345471, 45.8060705], [-111.333591, 45.806955], [-111.333199, 45.80764], [-111.333198, 45.808303], [-111.333525, 45.808692], [-111.333623, 45.808806], [-111.333884, 45.808784], [-111.334669, 45.808601], [-111.335748, 45.808396], [-111.336107, 45.808601], [-111.336205, 45.808762], [-111.336172, 45.809127], [-111.335845, 45.80963], [-111.335125, 45.810476], [-111.334537, 45.811047], [-111.334046, 45.811298], [-111.332999, 45.811778], [-111.3325054, 45.8122449], [-111.3322094, 45.8123985], [-111.3320025, 45.8125394], [-111.331756, 45.812852], [-111.3316321, 45.8130021], [-111.3315626, 45.813155], [-111.3315532, 45.8133065], [-111.331577, 45.8138991], [-111.3315792, 45.8141119], [-111.3315554, 45.8143221], [-111.3315132, 45.8144799], [-111.3314331, 45.8145216], [-111.3313331, 45.8145949], [-111.3310233, 45.8150001], [-111.3308725, 45.8150848], [-111.3307502, 45.8151916], [-111.3305182, 45.8152839], [-111.3303388, 45.8155765], [-111.3300861, 45.8157292], [-111.3295335, 45.8158424], [-111.3291308, 45.8159818], [-111.3289608, 45.8160824], [-111.3289634, 45.8162824], [-111.3289334, 45.8163717], [-111.3288483, 45.8164077], [-111.3276176, 45.8164139], [-111.3268293, 45.8164581], [-111.3264498, 45.8165784], [-111.3258157, 45.81656], [-111.3254392, 45.8166015], [-111.3248749, 45.8167871], [-111.3241792, 45.8170137], [-111.3213953, 45.8181631], [-111.316841, 45.820093], [-111.3161283, 45.8203675], [-111.3156456, 45.8207944], [-111.3151591, 45.8211873], [-111.31455, 45.821783], [-111.3138054, 45.822503], [-111.3132659, 45.8231719], [-111.3132094, 45.8237199]]}, "properties": {"NHD:ComID": "3851701", "NHD:FCode": "33600", "NHD:FType": "CanalDitch", "NHD:ReachCode": "10020008000627", "NHD:way_id": "3851701", "attribution": "NHD", "source": "NHD_import_v0.3_20090818122332", "waterway": "ditch", "osm_id": 39283553, "osm_type": "way", "display_name": "Unknown"}}, {"type": "Feature", "geometry": {"type": "LineString", "coordinates": [[-111.359075, 45.857096], [-111.359369, 45.857233], [-111.35986, 45.857233], [-111.360777, 45.857074], [-111.3616099, 45.8569781], [-111.3619534, 45.8569901], [-111.3620832, 45.8569771], [-111.3625586, 45.8568863], [-111.3627847, 45.8568761], [-111.3634354, 45.8569651], [-111.3635833, 45.8569417], [-111.3636872, 45.8568768], [-111.3639526, 45.8564708], [-111.3641322, 45.8563377], [-111.3643261, 45.8563151], [-111.3648846, 45.8563236], [-111.3652828, 45.8563715], [-111.3654644, 45.856355], [-111.3658724, 45.8562515], [-111.3660818, 45.8562563], [-111.3662591, 45.8563127], [-111.3664047, 45.8564371], [-111.3664469, 45.8566008], [-111.3663595, 45.8567482], [-111.3661237, 45.8568871], [-111.365916, 45.8572404], [-111.3655345, 45.8575618], [-111.3653423, 45.8578072], [-111.3652766, 45.8580578], [-111.3652354, 45.8581664], [-111.3651418, 45.8584414], [-111.3653005, 45.8588722], [-111.3651945, 45.8590175], [-111.3651251, 45.8590637], [-111.3650216, 45.8592538], [-111.3650429, 45.8594456], [-111.3651364, 45.8598008], [-111.3651218, 45.8599225], [-111.365024, 45.8600341], [-111.3649849, 45.860169], [-111.3650155, 45.8604012], [-111.3650291, 45.8604678], [-111.3650417, 45.8605218], [-111.3651066, 45.8606747], [-111.3652259, 45.8607181], [-111.3653534, 45.8607059], [-111.3657337, 45.8604917], [-111.3659797, 45.860465], [-111.3661337, 45.8605566], [-111.3661104, 45.8607394], [-111.3658742, 45.8611563], [-111.3659662, 45.861594], [-111.3660583, 45.8621732], [-111.3660961, 45.8624365], [-111.3662555, 45.8626056], [-111.3664549, 45.862656], [-111.3668848, 45.8625849], [-111.3670051, 45.8626004], [-111.36745, 45.862858], [-111.3680156, 45.8631273], [-111.3684698, 45.8635474], [-111.3686678, 45.8636521], [-111.3687552, 45.8636589], [-111.3689011, 45.8636723], [-111.3692523, 45.863768], [-111.3693646, 45.8638287], [-111.3696578, 45.8644369], [-111.3704002, 45.8647926], [-111.3706588, 45.8648822], [-111.3714438, 45.8649273], [-111.3721167, 45.8650769], [-111.3726078, 45.8651243], [-111.3730041, 45.8650979], [-111.3734202, 45.8649992]]}, "properties": {"NHD:ComID": "3851181", "NHD:FCode": "33600", "NHD:FType": "CanalDitch", "NHD:ReachCode": "10020008002185", "NHD:way_id": "3851181", "attribution": "NHD", "source": "NHD_import_v0.3_20090818122332", "waterway": "ditch", "osm_id": 39283604, "osm_type": "way", "display_name": "Unknown"}}, {"type": "Feature", "geometry": {"type": "LineString", "coordinates": [[-111.360166, 45.813042], [-111.359643, 45.812928], [-111.357682, 45.813042], [-111.356864, 45.813156], [-111.355851, 45.813476], [-111.355328, 45.81391], [-111.35523, 45.814025], [-111.355164, 45.814047], [-111.355066, 45.814185], [-111.354379, 45.814825], [-111.353823, 45.815099], [-111.353137, 45.815487], [-111.352352, 45.815716], [-111.351404, 45.815853], [-111.350161, 45.81583], [-111.34954, 45.815715], [-111.3482, 45.815166], [-111.347709, 45.814823], [-111.347612, 45.814663], [-111.347219, 45.814343], [-111.347056, 45.814069], [-111.347023, 45.813703], [-111.347154, 45.813429], [-111.347318, 45.813291], [-111.348037, 45.812926], [-111.348691, 45.812537], [-111.34892, 45.812194], [-111.350523, 45.811143], [-111.351013, 45.810983], [-111.351733, 45.810846], [-111.353204, 45.810801], [-111.35425, 45.810344], [-111.354544, 45.810138], [-111.354708, 45.809887], [-111.355329, 45.809155], [-111.355722, 45.808789], [-111.357062, 45.808355], [-111.357912, 45.808264], [-111.35837, 45.80799], [-111.358991, 45.807555], [-111.361247, 45.80623], [-111.36177, 45.80607], [-111.362195, 45.806047], [-111.362653, 45.80591], [-111.363012, 45.805658], [-111.363339, 45.804995], [-111.363699, 45.804447], [-111.364713, 45.803784], [-111.365334, 45.803281], [-111.365628, 45.802892], [-111.365726, 45.802687], [-111.365759, 45.801932], [-111.366053, 45.801452], [-111.366903, 45.800972], [-111.367295, 45.800538], [-111.367426, 45.800218], [-111.367917, 45.799578], [-111.369191, 45.799029], [-111.369747, 45.798618], [-111.36991, 45.798343], [-111.369878, 45.798275], [-111.369747, 45.797795], [-111.369845, 45.797132], [-111.369911, 45.796972], [-111.371806, 45.795668], [-111.372493, 45.795348], [-111.373996, 45.79496], [-111.375794, 45.794183], [-111.378572, 45.792742], [-111.379389, 45.792239], [-111.380369, 45.791462], [-111.380696, 45.79105], [-111.380728, 45.790776]]}, "properties": {"NHD:ComID": "3851797", "NHD:FCode": "33600", "NHD:FType": "CanalDitch", "NHD:ReachCode": "10020008002816", "NHD:way_id": "3851797", "attribution": "NHD", "source": "NHD_import_v0.3_20090818122332", "waterway": "ditch", "osm_id": 39283671, "osm_type": "way", "display_name": "Unknown"}}, {"type": "Feature", "geometry": {"type": "LineString", "coordinates": [[-111.2898239, 45.8327771], [-111.2903778, 45.8330488], [-111.2947641, 45.835431]]}, "properties": {"NHD:ComID": "3851379", "NHD:FCode": "33600", "NHD:FType": "CanalDitch", "NHD:ReachCode": "10020008000660", "NHD:way_id": "3851379", "attribution": "NHD", "source": "NHD_import_v0.3_20090818122332", "waterway": "ditch", "osm_id": 39283780, "osm_type": "way", "display_name": "Unknown"}}, {"type": "Feature", "geometry": {"type": "LineString", "coordinates": [[-111.363664, 45.816289], [-111.363631, 45.816472], [-111.363402, 45.816792], [-111.363566, 45.817478], [-111.363631, 45.817546], [-111.363794, 45.817935], [-111.364219, 45.818415], [-111.365102, 45.819147], [-111.366377, 45.820061], [-111.368535, 45.820702], [-111.369516, 45.820908], [-111.369974, 45.821159], [-111.370497, 45.821342], [-111.370791, 45.821342], [-111.372066, 45.821273], [-111.372328, 45.821365], [-111.372361, 45.821479]]}, "properties": {"NHD:ComID": "3851607", "NHD:FCode": "33600", "NHD:FType": "CanalDitch", "NHD:ReachCode": "10020008002311", "NHD:way_id": "3851607", "attribution": "NHD", "source": "NHD_import_v0.3_20090818122332", "waterway": "ditch", "osm_id": 39283901, "osm_type": "way", "display_name": "Unknown"}}, {"type": "Feature", "geometry": {"type": "LineString", "coordinates": [[-111.3476372, 45.8503967], [-111.3483667, 45.8502696], [-111.349171, 45.8500088], [-111.350081, 45.849688], [-111.351651, 45.849619], [-111.352665, 45.849505], [-111.353188, 45.849528], [-111.353581, 45.849643], [-111.353908, 45.849848], [-111.353908, 45.849963], [-111.354039, 45.850077], [-111.353908, 45.850283], [-111.352632, 45.851151], [-111.352664, 45.851563], [-111.353613, 45.852294], [-111.353776, 45.8525], [-111.353776, 45.852957], [-111.353547, 45.853255], [-111.353383, 45.85362], [-111.35335, 45.854603], [-111.353645, 45.854809], [-111.354822, 45.854992], [-111.35515, 45.85513], [-111.355509, 45.855541], [-111.35672, 45.855838], [-111.357112, 45.856113], [-111.357406, 45.85657], [-111.357963, 45.85689], [-111.359075, 45.857096]]}, "properties": {"NHD:ComID": "3851229", "NHD:FCode": "33600", "NHD:FType": "CanalDitch", "NHD:ReachCode": "10020008002356", "NHD:way_id": "3851229", "attribution": "NHD", "source": "NHD_import_v0.3_20090818122332", "waterway": "ditch", "osm_id": 39284270, "osm_type": "way", "display_name": "Unknown"}}, {"type": "Feature", "geometry": {"type": "LineString", "coordinates": [[-111.3347108, 45.8044754], [-111.3344332, 45.8047285]]}, "properties": {"NHD:ComID": "3851703", "NHD:FCode": "33600", "NHD:FType": "CanalDitch", "NHD:ReachCode": "10020008002328", "NHD:way_id": "3851703", "attribution": "NHD", "source": "NHD_import_v0.3_20090818122332", "waterway": "ditch", "osm_id": 39284383, "osm_type": "way", "display_name": "Unknown"}}, {"type": "Feature", "geometry": {"type": "LineString", "coordinates": [[-111.2720506, 45.8234655], [-111.2722757, 45.8235761], [-111.2726181, 45.8237469], [-111.2731348, 45.8239091], [-111.2736522, 45.8241264]]}, "properties": {"NHD:ComID": "3851457", "NHD:FCode": "33600", "NHD:FType": "CanalDitch", "NHD:ReachCode": "10020008000667", "NHD:way_id": "3851457", "attribution": "NHD", "source": "NHD_import_v0.3_20090818122332", "waterway": "ditch", "osm_id": 39284643, "osm_type": "way", "display_name": "Unknown"}}, {"type": "Feature", "geometry": {"type": "LineString", "coordinates": [[-111.386422, 45.828932], [-111.38639, 45.829183], [-111.385213, 45.829869], [-111.385049, 45.830143], [-111.385147, 45.830806], [-111.385213, 45.830829], [-111.385246, 45.830921], [-111.386063, 45.831378], [-111.386586, 45.831515], [-111.387698, 45.831515], [-111.388025, 45.831766], [-111.388353, 45.832429], [-111.388745, 45.832681], [-111.38904, 45.833138], [-111.389301, 45.833755], [-111.38953, 45.834006]]}, "properties": {"NHD:ComID": "3851407", "NHD:FCode": "33600", "NHD:FType": "CanalDitch", "NHD:ReachCode": "10020008000558", "NHD:way_id": "3851407", "attribution": "NHD", "source": "NHD_import_v0.3_20090818122332", "waterway": "ditch", "osm_id": 39284931, "osm_type": "way", "display_name": "Unknown"}}, {"type": "Feature", "geometry": {"type": "LineString", "coordinates": [[-111.3730709, 45.8790437], [-111.372358, 45.87861], [-111.365354, 45.874929], [-111.358678, 45.871293], [-111.3562526, 45.8700819], [-111.3527823, 45.8683488], [-111.3517725, 45.8678661], [-111.3475137, 45.8678282], [-111.3472787, 45.8678114], [-111.3416415, 45.8648233]]}, "properties": {"NHD:ComID": "3851311", "NHD:FCode": "33600", "NHD:FType": "CanalDitch", "NHD:ReachCode": "10020008000484", "NHD:way_id": "3851311", "attribution": "NHD", "source": "NHD_import_v0.3_20090818122332", "waterway": "ditch", "width": "4", "osm_id": 39286216, "osm_type": "way", "display_name": "Unknown"}}, {"type": "Feature", "geometry": {"type": "LineString", "coordinates": [[-111.391438, 45.868847], [-111.3912339, 45.8688092], [-111.3906148, 45.8690664], [-111.3900229, 45.8695701], [-111.3896977, 45.8697721], [-111.389036, 45.8704026], [-111.3884871, 45.8707779], [-111.3878298, 45.8711497], [-111.3874958, 45.8711949], [-111.3870201, 45.871144], [-111.3857236, 45.8707319], [-111.38509, 45.8705016], [-111.3844883, 45.8702545], [-111.3842227, 45.8701118], [-111.3834513, 45.8700322], [-111.3829529, 45.8698082], [-111.3827862, 45.8696507], [-111.3826706, 45.8694226], [-111.3824428, 45.8686394], [-111.3822763, 45.8682154], [-111.382117, 45.8678338], [-111.3820462, 45.8673437], [-111.3819071, 45.8671324], [-111.3816818, 45.8670142], [-111.3813249, 45.8669482], [-111.3806591, 45.8670059], [-111.3801125, 45.8671363], [-111.3799764, 45.8671116], [-111.3798354, 45.8670184], [-111.3788516, 45.8663081], [-111.3781687, 45.8659181], [-111.377438, 45.8654823], [-111.3771454, 45.8653947], [-111.3763274, 45.8653434], [-111.3761903, 45.8652807], [-111.3758941, 45.8650444], [-111.37531, 45.8649109], [-111.3748317, 45.8648464], [-111.3742341, 45.8648697], [-111.3734202, 45.8649992]]}, "properties": {"NHD:ComID": "3851079", "NHD:FCode": "33600", "NHD:FType": "CanalDitch", "NHD:ReachCode": "10020008002800", "NHD:way_id": "3851079", "attribution": "NHD", "source": "NHD_import_v0.3_20090818122332", "waterway": "ditch", "osm_id": 39286343, "osm_type": "way", "display_name": "Unknown"}}, {"type": "Feature", "geometry": {"type": "LineString", "coordinates": [[-111.3734202, 45.8649992], [-111.373471, 45.866036]]}, "properties": {"NHD:ComID": "3854547", "NHD:FCode": "33400", "NHD:FType": "Connector", "NHD:ReachCode": "10020008002180", "NHD:way_id": "3854547", "attribution": "NHD", "source": "NHD_import_v0.3_20090818122332", "tunnel": "yes", "waterway": "drain", "osm_id": 39287010, "osm_type": "way", "display_name": "Unknown"}}, {"type": "Feature", "geometry": {"type": "LineString", "coordinates": [[-111.332077, 45.8048252], [-111.3336512, 45.8043501], [-111.3342249, 45.8042472], [-111.3345401, 45.8041032], [-111.3348177, 45.8037459], [-111.3351106, 45.8033888], [-111.3354582, 45.8032093], [-111.3366051, 45.8026848], [-111.3367529, 45.8023942], [-111.337247, 45.8011648], [-111.337192, 45.800509], [-111.3372389, 45.8000553], [-111.337029, 45.798611], [-111.337128, 45.798337], [-111.337161, 45.797903], [-111.337259, 45.797697], [-111.33739, 45.796462], [-111.337293, 45.796394], [-111.337097, 45.795754], [-111.336868, 45.795433], [-111.336869, 45.794908], [-111.337359, 45.794153], [-111.337425, 45.793742], [-111.337066, 45.793376], [-111.33638, 45.79301], [-111.335922, 45.792713], [-111.335759, 45.792461], [-111.335819, 45.790973]]}, "properties": {"NHD:ComID": "3854569", "NHD:FCode": "33600", "NHD:FType": "CanalDitch", "NHD:ReachCode": "10020008002818", "NHD:way_id": "3854569", "attribution": "NHD", "source": "NHD_import_v0.3_20090818122332", "waterway": "ditch", "osm_id": 39287037, "osm_type": "way", "display_name": "Unknown"}}, {"type": "Feature", "geometry": {"type": "LineString", "coordinates": [[-111.3072497, 45.8327399], [-111.3072517, 45.832762], [-111.307405, 45.8336517], [-111.3075477, 45.8337942], [-111.3077659, 45.833872], [-111.3081324, 45.834041], [-111.3083043, 45.8341508], [-111.311428, 45.83527], [-111.312017, 45.835659], [-111.31218, 45.836047], [-111.311795, 45.8384599], [-111.3120692, 45.8405022], [-111.3124662, 45.841223], [-111.3131728, 45.8420385], [-111.313456, 45.8425207], [-111.3136846, 45.8431885], [-111.3138734, 45.8442694], [-111.3139408, 45.8447965], [-111.3139144, 45.8448791], [-111.3139242, 45.8450072], [-111.3139152, 45.8450967]]}, "properties": {"NHD:ComID": "3851385", "NHD:FCode": "33600", "NHD:FType": "CanalDitch", "NHD:ReachCode": "10020008000626", "NHD:way_id": "3851385", "attribution": "NHD", "source": "NHD_import_v0.3_20090818122332", "waterway": "ditch", "osm_id": 39287193, "osm_type": "way", "display_name": "Unknown"}}, {"type": "Feature", "geometry": {"type": "LineString", "coordinates": [[-111.3136925, 45.8452556], [-111.3144765, 45.8455251], [-111.3148146, 45.8455979], [-111.3160691, 45.8456893], [-111.3247274, 45.8457496], [-111.3256557, 45.8457574], [-111.3260106, 45.8457167], [-111.3264767, 45.8455725], [-111.3268583, 45.8454848], [-111.3274774, 45.8452933], [-111.3283414, 45.8452243], [-111.3290053, 45.845151], [-111.329444, 45.8451688], [-111.3308153, 45.8456758], [-111.3310679, 45.8456775], [-111.3313086, 45.8456364], [-111.331731, 45.8454913], [-111.3330825, 45.8453782], [-111.3335118, 45.8455228], [-111.3339682, 45.8458693], [-111.3343585, 45.8468393], [-111.3346103, 45.8471042], [-111.335299, 45.8475213], [-111.3360703, 45.8482341], [-111.336194, 45.8482802], [-111.3364534, 45.8482961], [-111.3369428, 45.8483136], [-111.3370564, 45.848292], [-111.3373478, 45.8483364], [-111.3376794, 45.8483469]]}, "properties": {"NHD:ComID": "3851259", "NHD:FCode": "33600", "NHD:FType": "CanalDitch", "NHD:ReachCode": "10020008000625", "NHD:way_id": "3851259", "attribution": "NHD", "source": "NHD_import_v0.3_20090818122332", "waterway": "ditch", "osm_id": 39287215, "osm_type": "way", "display_name": "Unknown"}}, {"type": "Feature", "geometry": {"type": "LineString", "coordinates": [[-111.337223, 45.802635], [-111.3372459, 45.8030133], [-111.337288, 45.803458], [-111.336541, 45.803616], [-111.3362009, 45.8038144], [-111.3360526, 45.8044002], [-111.3360604, 45.8049559], [-111.3360912, 45.805252], [-111.3360491, 45.8055557], [-111.3358892, 45.8059949], [-111.335819, 45.8061641], [-111.3353027, 45.8067428], [-111.3348303, 45.8070012], [-111.3346401, 45.807138], [-111.3345836, 45.8072631], [-111.3345806, 45.807466], [-111.3343556, 45.8078195], [-111.3342223, 45.8080389], [-111.334381, 45.8082694], [-111.3346908, 45.8084421], [-111.3349274, 45.8083948], [-111.335341, 45.8083298], [-111.3355754, 45.8081982], [-111.3358369, 45.808163], [-111.3364222, 45.8081305], [-111.3367529, 45.8079517], [-111.3369238, 45.8077633], [-111.337542, 45.8072618], [-111.3377169, 45.8072074], [-111.337841, 45.807299], [-111.3378746, 45.807698], [-111.3378706, 45.8078912], [-111.3377545, 45.8080654], [-111.3373985, 45.8084137], [-111.3369927, 45.8090017], [-111.3367497, 45.8092487], [-111.3365968, 45.8096688], [-111.3363667, 45.8100343], [-111.3360942, 45.8103127], [-111.3358466, 45.8105653], [-111.3344561, 45.8117461], [-111.3340353, 45.8119998], [-111.3333103, 45.8122946], [-111.3331317, 45.812518], [-111.3328248, 45.8130772], [-111.3326446, 45.8134724], [-111.3322433, 45.8141834], [-111.3321977, 45.8144105], [-111.3323133, 45.8146268], [-111.3325351, 45.8147816], [-111.3328339, 45.8148517], [-111.3331754, 45.8149084], [-111.3334045, 45.8148912], [-111.3336445, 45.8148981], [-111.3337993, 45.8149545], [-111.3339071, 45.8151005], [-111.334304, 45.815756], [-111.3344417, 45.8159461], [-111.3346273, 45.8161925], [-111.3350197, 45.8166357], [-111.3352713, 45.8168987], [-111.3354909, 45.8173887], [-111.3356151, 45.8177334], [-111.3356961, 45.8180252], [-111.3357348, 45.8182327], [-111.335741, 45.818455], [-111.3357012, 45.8190283], [-111.3358469, 45.8197637], [-111.3358635, 45.8203484], [-111.336001, 45.820992], [-111.336164, 45.821427], [-111.336262, 45.821518], [-111.336356, 45.8217725], [-111.3364163, 45.8220417], [-111.3364745, 45.8223682], [-111.3365898, 45.8225286], [-111.3367559, 45.8227948], [-111.336986, 45.8238415], [-111.337126, 45.8243733], [-111.3372094, 45.824851], [-111.3373119, 45.8253264], [-111.3373307, 45.8255323], [-111.3372223, 45.8258456], [-111.3371805, 45.8263403], [-111.3371628, 45.8273681], [-111.3371416, 45.8284189], [-111.3371526, 45.8288616], [-111.3371424, 45.8295189], [-111.3371276, 45.8300363], [-111.3373712, 45.8306465], [-111.337508, 45.8312843], [-111.3377089, 45.8316547], [-111.3377649, 45.8319396], [-111.3377724, 45.8322801], [-111.3378347, 45.8330786], [-111.3380669, 45.8336772], [-111.3380978, 45.8338852], [-111.3380871, 45.8340911], [-111.337869, 45.8345568], [-111.3376445, 45.8352406], [-111.337424, 45.8356549], [-111.3371579, 45.8359414], [-111.3370587, 45.8361367], [-111.3370716, 45.8365775], [-111.3368793, 45.8367513], [-111.3361333, 45.8375031], [-111.3358294, 45.8379678], [-111.3357374, 45.8382644], [-111.3358383, 45.8386176], [-111.3358842, 45.8388567], [-111.3358139, 45.8390872], [-111.3357841, 45.839405], [-111.3359735, 45.8397961], [-111.3362586, 45.8402668], [-111.336585, 45.8406633], [-111.3370155, 45.8410522], [-111.3377051, 45.8414924], [-111.3383571, 45.8420044], [-111.3386388, 45.8422482], [-111.3388668, 45.8423738], [-111.3393367, 45.8424536], [-111.3397814, 45.8424609], [-111.3401784, 45.8423945], [-111.340582, 45.8422215], [-111.3410823, 45.8420645], [-111.3420771, 45.8418725], [-111.3424124, 45.8417841], [-111.3427793, 45.8415821], [-111.3433758, 45.8414261], [-111.3437508, 45.8410501], [-111.3439675, 45.8409244], [-111.344284, 45.840788], [-111.344526, 45.8405918], [-111.344557, 45.840313], [-111.344721, 45.84013], [-111.3457072, 45.8395024], [-111.3465886, 45.8391086], [-111.3469096, 45.8390556], [-111.3472744, 45.83909], [-111.3475789, 45.839172]]}, "properties": {"NHD:ComID": "3851711", "NHD:FCode": "33600", "NHD:FType": "CanalDitch", "NHD:ReachCode": "10020008000624", "NHD:way_id": "3851711", "attribution": "NHD", "name": "Moreland Ditch", "source": "NHD_import_v0.3_20090818122332", "waterway": "ditch", "osm_id": 39287225, "osm_type": "way", "display_name": "Moreland Ditch"}}, {"type": "Feature", "geometry": {"type": "LineString", "coordinates": [[-111.2588706, 45.8173791], [-111.261062, 45.81845], [-111.2614044, 45.8187899], [-111.2611955, 45.8190122], [-111.2614548, 45.8191586], [-111.2618939, 45.8199468], [-111.2657653, 45.8219493], [-111.2674946, 45.8228157], [-111.2678797, 45.8229611], [-111.2680899, 45.8230728], [-111.2684172, 45.8231823]]}, "properties": {"NHD:ComID": "3853711", "NHD:FCode": "33600", "NHD:FType": "CanalDitch", "NHD:ReachCode": "10020008002833", "NHD:way_id": "3853711", "attribution": "NHD", "source": "NHD_import_v0.3_20090818122332", "waterway": "ditch", "osm_id": 82681658, "osm_type": "way", "display_name": "Unknown"}}, {"type": "Feature", "geometry": {"type": "LineString", "coordinates": [[-111.2589662, 45.8166169], [-111.2588706, 45.8173791]]}, "properties": {"NHD:ComID": "3853711", "NHD:FCode": "33600", "NHD:FType": "CanalDitch", "NHD:ReachCode": "10020008002833", "NHD:way_id": "3853711", "attribution": "NHD", "layer": "-1", "source": "NHD_import_v0.3_20090818122332", "tunnel": "yes", "waterway": "ditch", "osm_id": 82681676, "osm_type": "way", "display_name": "Unknown"}}, {"type": "Feature", "geometry": {"type": "LineString", "coordinates": [[-111.3887874, 45.8726993], [-111.3888686, 45.8728584], [-111.3899393, 45.8731083], [-111.391112, 45.8733706], [-111.393425, 45.8739709], [-111.3940436, 45.8740462]]}, "properties": {"NHD:ComID": "3851045", "NHD:FCode": "33600", "NHD:FType": "CanalDitch", "NHD:ReachCode": "10020008000552", "NHD:way_id": "3851045", "attribution": "NHD", "source": "NHD_import_v0.3_20090818122332", "waterway": "ditch", "osm_id": 89528310, "osm_type": "way", "display_name": "Unknown"}}, {"type": "Feature", "geometry": {"type": "LineString", "coordinates": [[-111.3888204, 45.8720519], [-111.3887874, 45.8726993]]}, "properties": {"NHD:ComID": "3851045", "NHD:FCode": "33600", "NHD:FType": "CanalDitch", "NHD:ReachCode": "10020008000552", "NHD:way_id": "3851045", "attribution": "NHD", "layer": "-1", "source": "NHD_import_v0.3_20090818122332", "tunnel": "culvert", "waterway": "ditch", "osm_id": 89528326, "osm_type": "way", "display_name": "Unknown"}}, {"type": "Feature", "geometry": {"type": "LineString", "coordinates": [[-111.3940436, 45.8740462], [-111.3952473, 45.873601]]}, "properties": {"NHD:ComID": "3851045", "NHD:FCode": "33600", "NHD:FType": "CanalDitch", "NHD:ReachCode": "10020008000552", "NHD:way_id": "3851045", "attribution": "NHD", "layer": "-1", "source": "NHD_import_v0.3_20090818122332", "tunnel": "culvert", "waterway": "ditch", "osm_id": 89528342, "osm_type": "way", "display_name": "Unknown"}}, {"type": "Feature", "geometry": {"type": "LineString", "coordinates": [[-111.3952473, 45.873601], [-111.395973, 45.8733022], [-111.3962987, 45.8732309], [-111.3965945, 45.8732724], [-111.396806, 45.873373], [-111.3968956, 45.8735605], [-111.3970786, 45.8736749], [-111.3975166, 45.8737592], [-111.3978562, 45.8739062], [-111.398325, 45.8742714], [-111.3989481, 45.874489], [-111.3992456, 45.8745267], [-111.399916, 45.874195], [-111.400276, 45.873943], [-111.400276, 45.873852], [-111.400407, 45.873692], [-111.40057, 45.873372], [-111.400505, 45.872823], [-111.400406, 45.872617], [-111.400406, 45.872183], [-111.4007, 45.87184], [-111.401159, 45.871497], [-111.401551, 45.871268], [-111.401715, 45.871085], [-111.401813, 45.870697], [-111.402761, 45.870193]]}, "properties": {"NHD:ComID": "3851045", "NHD:FCode": "33600", "NHD:FType": "CanalDitch", "NHD:ReachCode": "10020008000552", "NHD:way_id": "3851045", "attribution": "NHD", "source": "NHD_import_v0.3_20090818122332", "waterway": "ditch", "osm_id": 89528356, "osm_type": "way", "display_name": "Unknown"}}, {"type": "Feature", "geometry": {"type": "LineString", "coordinates": [[-111.3373888, 45.8625683], [-111.3372112, 45.8624651]]}, "properties": {"NHD:ComID": "3851311", "NHD:FCode": "33600", "NHD:FType": "CanalDitch", "NHD:ReachCode": "10020008000484", "NHD:way_id": "3851311", "attribution": "NHD", "layer": "-1", "source": "yahoo", "tunnel": "culvert", "waterway": "canal", "width": "4", "osm_id": 93520600, "osm_type": "way", "display_name": "Unknown"}}, {"type": "Feature", "geometry": {"type": "LineString", "coordinates": [[-111.3148293, 45.8601942], [-111.3148264, 45.8601808], [-111.31477, 45.8599793], [-111.3146606, 45.8593234], [-111.3146292, 45.8591525], [-111.3145581, 45.8589275], [-111.3142439, 45.8585459], [-111.3141464, 45.8583197], [-111.3141777, 45.8581139], [-111.3144142, 45.8576784], [-111.3146538, 45.8575362], [-111.3147352, 45.857445], [-111.3147469, 45.8572932], [-111.3146055, 45.8571897], [-111.3141141, 45.8571591], [-111.3136903, 45.8570954], [-111.3132148, 45.8571253], [-111.3127201, 45.8570114], [-111.3119822, 45.8566056], [-111.3074034, 45.8565279], [-111.3073044, 45.8564925], [-111.3072557, 45.8562214], [-111.3072027, 45.8555836], [-111.3071337, 45.8551844], [-111.3071418, 45.8549897], [-111.3071025, 45.8548162], [-111.3070084, 45.8546058], [-111.3068708, 45.8543683], [-111.306523, 45.8539718], [-111.3062891, 45.8536571], [-111.3061485, 45.8531762], [-111.3059189, 45.8526555], [-111.305772, 45.8522126], [-111.3056072, 45.8519791], [-111.3055168, 45.851726], [-111.3055106, 45.8514654], [-111.3054511, 45.8510074], [-111.3055952, 45.850364], [-111.3056632, 45.8500282], [-111.3056383, 45.8497397], [-111.305328, 45.848869], [-111.305295, 45.848709], [-111.305197, 45.84864], [-111.3049964, 45.8483624], [-111.3048023, 45.8479903], [-111.3048198, 45.8473987], [-111.3047657, 45.8467252], [-111.3046999, 45.8464613], [-111.3046733, 45.8461274], [-111.304579, 45.845896], [-111.304318, 45.845553], [-111.3041657, 45.8453237], [-111.3041581, 45.8450519], [-111.3042749, 45.8444908], [-111.3041055, 45.8442686], [-111.3039923, 45.8438144]]}, "properties": {"NHD:ComID": "3851311", "NHD:FCode": "33600", "NHD:FType": "CanalDitch", "NHD:ReachCode": "10020008000484", "NHD:way_id": "3851311", "attribution": "NHD", "source": "NHD_import_v0.3_20090818122332", "waterway": "drain", "width": "4", "osm_id": 93520628, "osm_type": "way", "display_name": "Unknown"}}, {"type": "Feature", "geometry": {"type": "LineString", "coordinates": [[-111.3034882, 45.8419628], [-111.30344, 45.841735]]}, "properties": {"NHD:ComID": "3851311", "NHD:FCode": "33600", "NHD:FType": "CanalDitch", "NHD:ReachCode": "10020008000484", "NHD:way_id": "3851311", "attribution": "NHD", "layer": "-1", "source": "NHD_import_v0.3_20090818122332", "tunnel": "culvert", "waterway": "drain", "width": "4", "osm_id": 426187499, "osm_type": "way", "display_name": "Unknown"}}, {"type": "Feature", "geometry": {"type": "LineString", "coordinates": [[-111.30344, 45.841735], [-111.303178, 45.841529], [-111.303178, 45.841369], [-111.302753, 45.841094], [-111.302721, 45.84098], [-111.2990755, 45.8392456]]}, "properties": {"NHD:ComID": "3851311", "NHD:FCode": "33600", "NHD:FType": "CanalDitch", "NHD:ReachCode": "10020008000484", "NHD:way_id": "3851311", "attribution": "NHD", "source": "NHD_import_v0.3_20090818122332", "waterway": "drain", "width": "4", "osm_id": 426187500, "osm_type": "way", "display_name": "Unknown"}}, {"type": "Feature", "geometry": {"type": "LineString", "coordinates": [[-111.3382819, 45.8483754], [-111.3386206, 45.8484038], [-111.3388925, 45.8484785], [-111.3391963, 45.8485602], [-111.3395091, 45.8487045], [-111.3407622, 45.8495579], [-111.3412017, 45.8498519], [-111.3423771, 45.8505016]]}, "properties": {"NHD:ComID": "3851259", "NHD:FCode": "33600", "NHD:FType": "CanalDitch", "NHD:ReachCode": "10020008000625", "NHD:way_id": "3851259", "attribution": "NHD", "source": "NHD_import_v0.3_20090818122332", "waterway": "ditch", "osm_id": 893911422, "osm_type": "way", "display_name": "Unknown"}}, {"type": "Feature", "geometry": {"type": "LineString", "coordinates": [[-111.3376794, 45.8483469], [-111.3382819, 45.8483754]]}, "properties": {"NHD:ComID": "3851259", "NHD:FCode": "33600", "NHD:FType": "CanalDitch", "NHD:ReachCode": "10020008000625", "NHD:way_id": "3851259", "attribution": "NHD", "layer": "-1", "source": "NHD_import_v0.3_20090818122332", "tunnel": "culvert", "waterway": "ditch", "osm_id": 893911423, "osm_type": "way", "display_name": "Unknown"}}, {"type": "Feature", "geometry": {"type": "LineString", "coordinates": [[-111.2854303, 45.8304023], [-111.2855786, 45.8305147]]}, "properties": {"NHD:ComID": "3851397", "NHD:FCode": "33600", "NHD:FType": "CanalDitch", "NHD:ReachCode": "10020008000662", "NHD:way_id": "3851397", "attribution": "NHD", "source": "NHD_import_v0.3_20090818122332", "waterway": "ditch", "osm_id": 893911426, "osm_type": "way", "display_name": "Unknown"}}, {"type": "Feature", "geometry": {"type": "LineString", "coordinates": [[-111.2851572, 45.8302709], [-111.2854303, 45.8304023]]}, "properties": {"NHD:ComID": "3851397", "NHD:FCode": "33600", "NHD:FType": "CanalDitch", "NHD:ReachCode": "10020008000662", "NHD:way_id": "3851397", "attribution": "NHD", "layer": "-1", "source": "NHD_import_v0.3_20090818122332", "tunnel": "culvert", "waterway": "ditch", "osm_id": 893911427, "osm_type": "way", "display_name": "Unknown"}}, {"type": "Feature", "geometry": {"type": "LineString", "coordinates": [[-111.3473873, 45.850403], [-111.3476372, 45.8503967]]}, "properties": {"NHD:ComID": "3851229", "NHD:FCode": "33600", "NHD:FType": "CanalDitch", "NHD:ReachCode": "10020008002356", "NHD:way_id": "3851229", "attribution": "NHD", "layer": "-1", "source": "NHD_import_v0.3_20090818122332", "tunnel": "culvert", "waterway": "ditch", "osm_id": 893911437, "osm_type": "way", "display_name": "Unknown"}}, {"type": "Feature", "geometry": {"type": "LineString", "coordinates": [[-111.3423771, 45.8505016], [-111.3431874, 45.8509638], [-111.3440106, 45.8514295], [-111.3442439, 45.8515545], [-111.3444732, 45.8516176], [-111.3448712, 45.8516009], [-111.3451933, 45.8515442], [-111.3455306, 45.8514256], [-111.3458967, 45.8513559], [-111.3460736, 45.8513104], [-111.3464946, 45.8509833], [-111.3470259, 45.8504341], [-111.3473873, 45.850403]]}, "properties": {"NHD:ComID": "3851229", "NHD:FCode": "33600", "NHD:FType": "CanalDitch", "NHD:ReachCode": "10020008002356", "NHD:way_id": "3851229", "attribution": "NHD", "source": "NHD_import_v0.3_20090818122332", "waterway": "ditch", "osm_id": 893911438, "osm_type": "way", "display_name": "Unknown"}}, {"type": "Feature", "geometry": {"type": "LineString", "coordinates": [[-111.3039738, 45.8437213], [-111.3040505, 45.8430796], [-111.304059, 45.84297], [-111.30357, 45.842421], [-111.3034882, 45.8419628]]}, "properties": {"NHD:ComID": "3851311", "NHD:FCode": "33600", "NHD:FType": "CanalDitch", "NHD:ReachCode": "10020008000484", "NHD:way_id": "3851311", "attribution": "NHD", "source": "NHD_import_v0.3_20090818122332", "waterway": "drain", "width": "4", "osm_id": 893911471, "osm_type": "way", "display_name": "Unknown"}}, {"type": "Feature", "geometry": {"type": "LineString", "coordinates": [[-111.3039923, 45.8438144], [-111.3039738, 45.8437213]]}, "properties": {"NHD:ComID": "3851311", "NHD:FCode": "33600", "NHD:FType": "CanalDitch", "NHD:ReachCode": "10020008000484", "NHD:way_id": "3851311", "attribution": "NHD", "layer": "-1", "source": "NHD_import_v0.3_20090818122332", "tunnel": "culvert", "waterway": "drain", "width": "4", "osm_id": 893911472, "osm_type": "way", "display_name": "Unknown"}}, {"type": "Feature", "geometry": {"type": "LineString", "coordinates": [[-111.313748, 45.8451588], [-111.3136925, 45.8452556]]}, "properties": {"NHD:ComID": "3851385", "NHD:FCode": "33600", "NHD:FType": "CanalDitch", "NHD:ReachCode": "10020008000626", "NHD:way_id": "3851385", "attribution": "NHD", "source": "NHD_import_v0.3_20090818122332", "waterway": "ditch", "osm_id": 1031840263, "osm_type": "way", "display_name": "Unknown"}}, {"type": "Feature", "geometry": {"type": "LineString", "coordinates": [[-111.3139152, 45.8450967], [-111.313748, 45.8451588]]}, "properties": {"NHD:ComID": "3851385", "NHD:FCode": "33600", "NHD:FType": "CanalDitch", "NHD:ReachCode": "10020008000626", "NHD:way_id": "3851385", "attribution": "NHD", "layer": "-1", "source": "NHD_import_v0.3_20090818122332", "tunnel": "culvert", "waterway": "ditch", "osm_id": 1031840264, "osm_type": "way", "display_name": "Unknown"}}, {"type": "Feature", "geometry": {"type": "LineString", "coordinates": [[-111.3131765, 45.8238137], [-111.313158, 45.8238663], [-111.3130749, 45.8239967], [-111.312846, 45.824754], [-111.312715, 45.825097], [-111.312387, 45.825943], [-111.312125, 45.826537], [-111.3101086, 45.8307856], [-111.3099599, 45.8311134], [-111.3098011, 45.8311111], [-111.3093702, 45.8311197], [-111.3077121, 45.8310613]]}, "properties": {"NHD:ComID": "3851701", "NHD:FCode": "33600", "NHD:FType": "CanalDitch", "NHD:ReachCode": "10020008000627", "NHD:way_id": "3851701", "attribution": "NHD", "source": "NHD_import_v0.3_20090818122332", "waterway": "ditch", "osm_id": 1031851944, "osm_type": "way", "display_name": "Unknown"}}, {"type": "Feature", "geometry": {"type": "LineString", "coordinates": [[-111.3132094, 45.8237199], [-111.3131765, 45.8238137]]}, "properties": {"NHD:ComID": "3851701", "NHD:FCode": "33600", "NHD:FType": "CanalDitch", "NHD:ReachCode": "10020008000627", "NHD:way_id": "3851701", "attribution": "NHD", "layer": "-1", "source": "NHD_import_v0.3_20090818122332", "tunnel": "culvert", "waterway": "ditch", "osm_id": 1031851945, "osm_type": "way", "display_name": "Unknown"}}, {"type": "Feature", "geometry": {"type": "LineString", "coordinates": [[-111.2529779, 45.8402169], [-111.2532375, 45.8402154], [-111.2533914, 45.8402191], [-111.2534985, 45.840261], [-111.2536126, 45.8403671], [-111.2538471, 45.8404706], [-111.254309, 45.8406346], [-111.2552752, 45.8408072], [-111.257404, 45.8415197], [-111.2583755, 45.8418994], [-111.2586639, 45.8422742], [-111.2589736, 45.8426033], [-111.2591292, 45.8426551], [-111.259255, 45.842697], [-111.2593531, 45.8427833], [-111.2596531, 45.8429522], [-111.2600885, 45.8440087], [-111.2601946, 45.8442071], [-111.2604139, 45.8442434], [-111.2605678, 45.8442275], [-111.2640477, 45.8442246]]}, "properties": {"waterway": "ditch", "osm_id": 1032970373, "osm_type": "way", "display_name": "Unknown"}}, {"type": "Feature", "geometry": {"type": "LineString", "coordinates": [[-111.2641868, 45.8442236], [-111.2686402, 45.8441747], [-111.2689003, 45.8441953], [-111.2693268, 45.8444587], [-111.2701985, 45.8449819], [-111.2704265, 45.8451799], [-111.2710032, 45.8454359], [-111.271368, 45.8454639], [-111.2716577, 45.8455443], [-111.271663, 45.8455985], [-111.2716872, 45.8457199], [-111.2721136, 45.8457143], [-111.2725213, 45.8458713], [-111.2732509, 45.8461496], [-111.2743828, 45.8464467], [-111.2747154, 45.8466242], [-111.2749434, 45.8468036], [-111.2751633, 45.8470446]]}, "properties": {"waterway": "ditch", "osm_id": 1032970374, "osm_type": "way", "display_name": "Unknown"}}, {"type": "Feature", "geometry": {"type": "LineString", "coordinates": [[-111.2640477, 45.8442246], [-111.2641868, 45.8442236]]}, "properties": {"layer": "-1", "tunnel": "culvert", "waterway": "ditch", "osm_id": 1032970375, "osm_type": "way", "display_name": "Unknown"}}, {"type": "Feature", "geometry": {"type": "LineString", "coordinates": [[-111.2591151, 45.8314293], [-111.2590481, 45.8315371], [-111.2591462, 45.8358972], [-111.2591042, 45.8382886], [-111.2592069, 45.8386985], [-111.2591292, 45.8426551]]}, "properties": {"waterway": "ditch", "osm_id": 1032970376, "osm_type": "way", "display_name": "Unknown"}}, {"type": "Feature", "geometry": {"type": "LineString", "coordinates": [[-111.3415283, 45.8647632], [-111.3373888, 45.8625683]]}, "properties": {"NHD:ComID": "3851311", "NHD:FCode": "33600", "NHD:FType": "CanalDitch", "NHD:ReachCode": "10020008000484", "NHD:way_id": "3851311", "attribution": "NHD", "source": "NHD_import_v0.3_20090818122332", "waterway": "ditch", "width": "4", "osm_id": 1049458260, "osm_type": "way", "display_name": "Unknown"}}, {"type": "Feature", "geometry": {"type": "LineString", "coordinates": [[-111.3416415, 45.8648233], [-111.3415283, 45.8647632]]}, "properties": {"NHD:ComID": "3851311", "NHD:FCode": "33600", "NHD:FType": "CanalDitch", "NHD:ReachCode": "10020008000484", "NHD:way_id": "3851311", "attribution": "NHD", "layer": "-1", "source": "NHD_import_v0.3_20090818122332", "tunnel": "culvert", "waterway": "ditch", "width": "4", "osm_id": 1049458261, "osm_type": "way", "display_name": "Unknown"}}, {"type": "Feature", "geometry": {"type": "LineString", "coordinates": [[-111.2529381, 45.7998782], [-111.2530516, 45.800048]]}, "properties": {"NHD:ComID": "3853711", "NHD:FCode": "33600", "NHD:FType": "CanalDitch", "NHD:ReachCode": "10020008002833", "NHD:way_id": "3853711", "attribution": "NHD", "layer": "-1", "source": "NHD_import_v0.3_20090818122332", "tunnel": "culvert", "waterway": "ditch", "osm_id": 1065965760, "osm_type": "way", "display_name": "Unknown"}}, {"type": "Feature", "geometry": {"type": "LineString", "coordinates": [[-111.2574995, 45.8092011], [-111.2579304, 45.810104], [-111.2580255, 45.8102412], [-111.2581162, 45.810502], [-111.2582125, 45.8105376], [-111.2589466, 45.8106237], [-111.2591159, 45.8107082], [-111.2591259, 45.8161439], [-111.2590353, 45.8162983], [-111.2589662, 45.8166169]]}, "properties": {"NHD:ComID": "3853711", "NHD:FCode": "33600", "NHD:FType": "CanalDitch", "NHD:ReachCode": "10020008002833", "NHD:way_id": "3853711", "attribution": "NHD", "source": "NHD_import_v0.3_20090818122332", "waterway": "ditch", "osm_id": 1065966723, "osm_type": "way", "display_name": "Unknown"}}, {"type": "Feature", "geometry": {"type": "LineString", "coordinates": [[-111.2574232, 45.8090496], [-111.2574995, 45.8092011]]}, "properties": {"NHD:ComID": "3853711", "NHD:FCode": "33600", "NHD:FType": "CanalDitch", "NHD:ReachCode": "10020008002833", "NHD:way_id": "3853711", "attribution": "NHD", "layer": "-1", "source": "NHD_import_v0.3_20090818122332", "tunnel": "culvert", "waterway": "ditch", "osm_id": 1065966724, "osm_type": "way", "display_name": "Unknown"}}, {"type": "Feature", "geometry": {"type": "LineString", "coordinates": [[-111.3372112, 45.8624651], [-111.3371164, 45.8615514], [-111.33703, 45.8614059], [-111.334101, 45.860594], [-111.3315025, 45.8605821], [-111.3296115, 45.860534], [-111.3294426, 45.8605489]]}, "properties": {"NHD:ComID": "3851311", "NHD:FCode": "33600", "NHD:FType": "CanalDitch", "NHD:ReachCode": "10020008000484", "NHD:way_id": "3851311", "attribution": "NHD", "source": "NHD_import_v0.3_20090818122332", "waterway": "drain", "width": "4", "osm_id": 1375616813, "osm_type": "way", "display_name": "Unknown"}}, {"type": "Feature", "geometry": {"type": "LineString", "coordinates": [[-111.3148369, 45.860337], [-111.3148293, 45.8601942]]}, "properties": {"NHD:ComID": "3851311", "NHD:FCode": "33600", "NHD:FType": "CanalDitch", "NHD:ReachCode": "10020008000484", "NHD:way_id": "3851311", "attribution": "NHD", "layer": "-1", "source": "NHD_import_v0.3_20090818122332", "tunnel": "culvert", "waterway": "drain", "width": "4", "osm_id": 1375616814, "osm_type": "way", "display_name": "Unknown"}}, {"type": "Feature", "geometry": {"type": "LineString", "coordinates": [[-111.3234542, 45.86054], [-111.3148662, 45.8603662], [-111.3148369, 45.860337]]}, "properties": {"NHD:ComID": "3851311", "NHD:FCode": "33600", "NHD:FType": "CanalDitch", "NHD:ReachCode": "10020008000484", "NHD:way_id": "3851311", "attribution": "NHD", "source": "NHD_import_v0.3_20090818122332", "waterway": "drain", "width": "4", "osm_id": 1375616815, "osm_type": "way", "display_name": "Unknown"}}, {"type": "Feature", "geometry": {"type": "LineString", "coordinates": [[-111.3235471, 45.8605419], [-111.3234542, 45.86054]]}, "properties": {"NHD:ComID": "3851311", "NHD:FCode": "33600", "NHD:FType": "CanalDitch", "NHD:ReachCode": "10020008000484", "NHD:way_id": "3851311", "attribution": "NHD", "layer": "-1", "source": "NHD_import_v0.3_20090818122332", "tunnel": "culvert", "waterway": "drain", "width": "4", "osm_id": 1375616816, "osm_type": "way", "display_name": "Unknown"}}, {"type": "Feature", "geometry": {"type": "LineString", "coordinates": [[-111.3264407, 45.8605659], [-111.3260069, 45.8605917], [-111.3235471, 45.8605419]]}, "properties": {"NHD:ComID": "3851311", "NHD:FCode": "33600", "NHD:FType": "CanalDitch", "NHD:ReachCode": "10020008000484", "NHD:way_id": "3851311", "attribution": "NHD", "source": "NHD_import_v0.3_20090818122332", "waterway": "drain", "width": "4", "osm_id": 1375616817, "osm_type": "way", "display_name": "Unknown"}}, {"type": "Feature", "geometry": {"type": "LineString", "coordinates": [[-111.3267677, 45.8605465], [-111.3264407, 45.8605659]]}, "properties": {"NHD:ComID": "3851311", "NHD:FCode": "33600", "NHD:FType": "CanalDitch", "NHD:ReachCode": "10020008000484", "NHD:way_id": "3851311", "attribution": "NHD", "layer": "-1", "source": "NHD_import_v0.3_20090818122332", "tunnel": "culvert", "waterway": "drain", "width": "4", "osm_id": 1375616818, "osm_type": "way", "display_name": "Unknown"}}, {"type": "Feature", "geometry": {"type": "LineString", "coordinates": [[-111.3283044, 45.8605429], [-111.3269481, 45.8605358], [-111.3267677, 45.8605465]]}, "properties": {"NHD:ComID": "3851311", "NHD:FCode": "33600", "NHD:FType": "CanalDitch", "NHD:ReachCode": "10020008000484", "NHD:way_id": "3851311", "attribution": "NHD", "source": "NHD_import_v0.3_20090818122332", "waterway": "drain", "width": "4", "osm_id": 1375616819, "osm_type": "way", "display_name": "Unknown"}}, {"type": "Feature", "geometry": {"type": "LineString", "coordinates": [[-111.3294426, 45.8605489], [-111.3290258, 45.8605467]]}, "properties": {"NHD:ComID": "3851311", "NHD:FCode": "33600", "NHD:FType": "CanalDitch", "NHD:ReachCode": "10020008000484", "NHD:way_id": "3851311", "attribution": "NHD", "layer": "-1", "source": "NHD_import_v0.3_20090818122332", "tunnel": "culvert", "waterway": "drain", "width": "4", "osm_id": 1375616820, "osm_type": "way", "display_name": "Unknown"}}, {"type": "Feature", "geometry": {"type": "LineString", "coordinates": [[-111.3290258, 45.8605467], [-111.3286318, 45.8605446]]}, "properties": {"NHD:ComID": "3851311", "NHD:FCode": "33600", "NHD:FType": "CanalDitch", "NHD:ReachCode": "10020008000484", "NHD:way_id": "3851311", "attribution": "NHD", "source": "NHD_import_v0.3_20090818122332", "waterway": "drain", "width": "4", "osm_id": 1375616821, "osm_type": "way", "display_name": "Unknown"}}, {"type": "Feature", "geometry": {"type": "LineString", "coordinates": [[-111.3286318, 45.8605446], [-111.3283044, 45.8605429]]}, "properties": {"NHD:ComID": "3851311", "NHD:FCode": "33600", "NHD:FType": "CanalDitch", "NHD:ReachCode": "10020008000484", "NHD:way_id": "3851311", "attribution": "NHD", "layer": "-1", "source": "NHD_import_v0.3_20090818122332", "tunnel": "culvert", "waterway": "drain", "width": "4", "osm_id": 1375616822, "osm_type": "way", "display_name": "Unknown"}}, {"type": "Feature", "geometry": {"type": "LineString", "coordinates": [[-111.3077121, 45.8310613], [-111.3075292, 45.8315405], [-111.307207, 45.8322504], [-111.3072393, 45.8326203]]}, "properties": {"NHD:ComID": "3851385", "NHD:FCode": "33600", "NHD:FType": "CanalDitch", "NHD:ReachCode": "10020008000626", "NHD:way_id": "3851385", "attribution": "NHD", "source": "NHD_import_v0.3_20090818122332", "waterway": "ditch", "osm_id": 1447541180, "osm_type": "way", "display_name": "Unknown"}}, {"type": "Feature", "geometry": {"type": "LineString", "coordinates": [[-111.3072393, 45.8326203], [-111.3072497, 45.8327399]]}, "properties": {"NHD:ComID": "3851385", "NHD:FCode": "33600", "NHD:FType": "CanalDitch", "NHD:ReachCode": "10020008000626", "NHD:way_id": "3851385", "attribution": "NHD", "layer": "-1", "source": "NHD_import_v0.3_20090818122332", "tunnel": "culvert", "waterway": "ditch", "osm_id": 1447541181, "osm_type": "way", "display_name": "Unknown"}}]}