{"type": "FeatureCollection", "features": [{"type": "Feature", "geometry": {"type": "Point", "coordinates": [-111.4261204, 45.9035111]}, "properties": {"power": "tower", "osm_id": 40723342, "display_name": "tower"}}, {"type": "Feature", "geometry": {"type": "Point", "coordinates": [-111.4238332, 45.902551]}, "properties": {"power": "tower", "osm_id": 40723344, "display_name": "tower"}}, {"type": "Feature", "geometry": {"type": "Point", "coordinates": [-111.4180519, 45.9001246]}, "properties": {"power": "tower", "osm_id": 40723346, "display_name": "tower"}}, {"type": "Feature", "geometry": {"type": "Point", "coordinates": [-111.409764, 45.896648]}, "properties": {"power": "tower", "osm_id": 40723348, "display_name": "tower"}}, {"type": "Feature", "geometry": {"type": "Point", "coordinates": [-111.4055327, 45.8948703]}, "properties": {"power": "tower", "osm_id": 40723351, "display_name": "tower"}}, {"type": "Feature", "geometry": {"type": "Point", "coordinates": [-111.3945817, 45.8903269]}, "properties": {"power": "tower", "osm_id": 40723367, "display_name": "tower"}}, {"type": "Feature", "geometry": {"type": "Point", "coordinates": [-111.3935223, 45.8899259]}, "properties": {"power": "tower", "osm_id": 40723370, "display_name": "tower"}}, {"type": "Feature", "geometry": {"type": "Point", "coordinates": [-111.3910726, 45.8871881]}, "properties": {"power": "tower", "osm_id": 40723395, "display_name": "tower"}}, {"type": "Feature", "geometry": {"type": "Point", "coordinates": [-111.3904582, 45.8864956]}, "properties": {"power": "tower", "osm_id": 40723399, "display_name": "tower"}}, {"type": "Feature", "geometry": {"type": "Point", "coordinates": [-111.3868541, 45.8852836]}, "properties": {"power": "tower", "osm_id": 40723401, "display_name": "tower"}}, {"type": "Feature", "geometry": {"type": "Point", "coordinates": [-111.3859943, 45.8848335]}, "properties": {"power": "tower", "osm_id": 40723405, "display_name": "tower"}}, {"type": "Feature", "geometry": {"type": "Point", "coordinates": [-111.3831136, 45.8833381]}, "properties": {"power": "tower", "osm_id": 1445858850, "display_name": "tower"}}, {"type": "Feature", "geometry": {"type": "Point", "coordinates": [-111.3840801, 45.8838397]}, "properties": {"power": "tower", "osm_id": 1445858851, "display_name": "tower"}}, {"type": "Feature", "geometry": {"type": "Point", "coordinates": [-111.3850275, 45.8843352]}, "properties": {"power": "tower", "osm_id": 1445858852, "display_name": "tower"}}, {"type": "Feature", "geometry": {"type": "Point", "coordinates": [-111.3877503, 45.8857438]}, "properties": {"power": "tower", "osm_id": 1445858883, "display_name": "tower"}}, {"type": "Feature", "geometry": {"type": "Point", "coordinates": [-111.3886456, 45.8859733]}, "properties": {"power": "tower", "osm_id": 1445858903, "display_name": "tower"}}, {"type": "Feature", "geometry": {"type": "Point", "coordinates": [-111.3894397, 45.8861728]}, "properties": {"power": "tower", "osm_id": 1445858933, "display_name": "tower"}}, {"type": "Feature", "geometry": {"type": "Point", "coordinates": [-111.3794248, 45.8813978]}, "properties": {"power": "tower", "osm_id": 9627763683, "display_name": "tower"}}, {"type": "Feature", "geometry": {"type": "Point", "coordinates": [-111.3772566, 45.8802445]}, "properties": {"power": "tower", "osm_id": 9627763684, "display_name": "tower"}}, {"type": "Feature", "geometry": {"type": "Point", "coordinates": [-111.3695702, 45.8761472]}, "properties": {"power": "tower", "osm_id": 9627763685, "display_name": "tower"}}, {"type": "Feature", "geometry": {"type": "Point", "coordinates": [-111.3544748, 45.868097]}, "properties": {"power": "tower", "osm_id": 9627763686, "display_name": "tower"}}, {"type": "Feature", "geometry": {"type": "Point", "coordinates": [-111.3523138, 45.8676577]}, "properties": {"power": "tower", "osm_id": 9627763687, "display_name": "tower"}}, {"type": "Feature", "geometry": {"type": "Point", "coordinates": [-111.348582, 45.8656734]}, "properties": {"power": "tower", "osm_id": 9627763688, "display_name": "tower"}}, {"type": "Feature", "geometry": {"type": "Point", "coordinates": [-111.3474995, 45.8653599]}, "properties": {"power": "tower", "osm_id": 9627763689, "display_name": "tower"}}, {"type": "Feature", "geometry": {"type": "Point", "coordinates": [-111.3329708, 45.8576059]}, "properties": {"power": "tower", "osm_id": 9627763690, "display_name": "tower"}}, {"type": "Feature", "geometry": {"type": "Point", "coordinates": [-111.3317202, 45.8569873]}, "properties": {"power": "tower", "osm_id": 9627763691, "display_name": "tower"}}, {"type": "Feature", "geometry": {"type": "Point", "coordinates": [-111.3310537, 45.8566294]}, "properties": {"power": "tower", "osm_id": 9627763692, "display_name": "tower"}}, {"type": "Feature", "geometry": {"type": "Point", "coordinates": [-111.3304227, 45.8562916]}, "properties": {"power": "tower", "osm_id": 9627763693, "display_name": "tower"}}, {"type": "Feature", "geometry": {"type": "Point", "coordinates": [-111.3297318, 45.855937]}, "properties": {"power": "tower", "osm_id": 9627763694, "display_name": "tower"}}, {"type": "Feature", "geometry": {"type": "Point", "coordinates": [-111.3287709, 45.8554193]}, "properties": {"power": "tower", "osm_id": 9627763695, "display_name": "tower"}}, {"type": "Feature", "geometry": {"type": "Point", "coordinates": [-111.3275481, 45.8547429]}, "properties": {"power": "tower", "osm_id": 9627763696, "display_name": "tower"}}, {"type": "Feature", "geometry": {"type": "Point", "coordinates": [-111.3538087, 45.8677705]}, "properties": {"power": "tower", "osm_id": 9627763697, "display_name": "tower"}}, {"type": "Feature", "geometry": {"type": "Point", "coordinates": [-111.3533138, 45.8682206]}, "properties": {"power": "tower", "osm_id": 9627763698, "display_name": "tower"}}, {"type": "Feature", "geometry": {"type": "Point", "coordinates": [-111.3532441, 45.8681413]}, "properties": {"power": "tower", "osm_id": 9627763699, "display_name": "tower"}}, {"type": "Feature", "geometry": {"type": "Point", "coordinates": [-111.353747, 45.8676968]}, "properties": {"power": "tower", "osm_id": 9627763700, "display_name": "tower"}}, {"type": "Feature", "geometry": {"type": "Point", "coordinates": [-111.3263026, 45.8530758]}, "properties": {"power": "tower", "osm_id": 9627763701, "display_name": "tower"}}, {"type": "Feature", "geometry": {"type": "Point", "coordinates": [-111.3174845, 45.8483593]}, "properties": {"power": "tower", "osm_id": 9627763702, "display_name": "tower"}}, {"type": "Feature", "geometry": {"type": "Point", "coordinates": [-111.3156615, 45.8473861]}, "properties": {"power": "tower", "osm_id": 9627763703, "display_name": "tower"}}, {"type": "Feature", "geometry": {"type": "Point", "coordinates": [-111.3148157, 45.8467359]}, "properties": {"power": "tower", "osm_id": 9627763704, "display_name": "tower"}}, {"type": "Feature", "geometry": {"type": "Point", "coordinates": [-111.3130233, 45.845954]}, "properties": {"power": "tower", "osm_id": 9627763705, "display_name": "tower"}}, {"type": "Feature", "geometry": {"type": "Point", "coordinates": [-111.312204, 45.8455896]}, "properties": {"power": "tower", "osm_id": 9627763706, "display_name": "tower"}}, {"type": "Feature", "geometry": {"type": "Point", "coordinates": [-111.3114944, 45.8452131]}, "properties": {"power": "tower", "osm_id": 9627763707, "display_name": "tower"}}, {"type": "Feature", "geometry": {"type": "Point", "coordinates": [-111.2688139, 45.8225015]}, "properties": {"power": "tower", "osm_id": 9627763708, "display_name": "tower"}}, {"type": "Feature", "geometry": {"type": "Point", "coordinates": [-111.3271825, 45.8541316]}, "properties": {"power": "tower", "osm_id": 11328334797, "display_name": "tower"}}, {"type": "Feature", "geometry": {"type": "Point", "coordinates": [-111.3271329, 45.8544875]}, "properties": {"power": "tower", "osm_id": 11328334798, "display_name": "tower"}}, {"type": "Feature", "geometry": {"type": "Point", "coordinates": [-111.3270055, 45.8544632]}, "properties": {"power": "tower", "osm_id": 11328334799, "display_name": "tower"}}, {"type": "Feature", "geometry": {"type": "Point", "coordinates": [-111.3270632, 45.8540774]}, "properties": {"power": "tower", "osm_id": 11328334800, "display_name": "tower"}}, {"type": "Feature", "geometry": {"type": "Point", "coordinates": [-111.3272711, 45.8535674]}, "properties": {"power": "tower", "osm_id": 11328334801, "display_name": "tower"}}, {"type": "Feature", "geometry": {"type": "Point", "coordinates": [-111.3271436, 45.8535394]}, "properties": {"power": "tower", "osm_id": 11328334802, "display_name": "tower"}}, {"type": "Feature", "geometry": {"type": "Point", "coordinates": [-111.3957282, 45.8907468]}, "properties": {"power": "tower", "osm_id": 11369676463, "display_name": "tower"}}, {"type": "Feature", "geometry": {"type": "Point", "coordinates": [-111.3946451, 45.8902324]}, "properties": {"power": "tower", "osm_id": 11369676464, "display_name": "tower"}}, {"type": "Feature", "geometry": {"type": "Point", "coordinates": [-111.3937648, 45.8898179]}, "properties": {"power": "tower", "osm_id": 11369676465, "display_name": "tower"}}, {"type": "Feature", "geometry": {"type": "Point", "coordinates": [-111.391313, 45.8870744]}, "properties": {"power": "tower", "osm_id": 11369676466, "display_name": "tower"}}, {"type": "Feature", "geometry": {"type": "Point", "coordinates": [-111.3907456, 45.8864405]}, "properties": {"power": "tower", "osm_id": 11369676467, "display_name": "tower"}}, {"type": "Feature", "geometry": {"type": "Point", "coordinates": [-111.3972186, 45.8913753]}, "properties": {"power": "tower", "osm_id": 11369676468, "display_name": "tower"}}, {"type": "Feature", "geometry": {"type": "Point", "coordinates": [-111.398684, 45.8919947]}, "properties": {"power": "tower", "osm_id": 11369722269, "display_name": "tower"}}, {"type": "Feature", "geometry": {"type": "Point", "coordinates": [-111.3292958, 45.8557021]}, "properties": {"power": "tower", "osm_id": 12034901506, "display_name": "tower"}}, {"type": "Feature", "geometry": {"type": "Point", "coordinates": [-111.4286074, 45.9045542]}, "properties": {"power": "tower", "osm_id": 12423666337, "display_name": "tower"}}, {"type": "Feature", "geometry": {"type": "Point", "coordinates": [-111.4276, 45.9041297]}, "properties": {"power": "tower", "osm_id": 12423666338, "display_name": "tower"}}, {"type": "Feature", "geometry": {"type": "Point", "coordinates": [-111.4247485, 45.9029332]}, "properties": {"power": "tower", "osm_id": 12423666339, "display_name": "tower"}}, {"type": "Feature", "geometry": {"type": "Point", "coordinates": [-111.4229555, 45.9021854]}, "properties": {"power": "tower", "osm_id": 12423666340, "display_name": "tower"}}, {"type": "Feature", "geometry": {"type": "Point", "coordinates": [-111.4215582, 45.9016034]}, "properties": {"power": "tower", "osm_id": 12423666341, "display_name": "tower"}}, {"type": "Feature", "geometry": {"type": "Point", "coordinates": [-111.4206767, 45.9012298]}, "properties": {"power": "tower", "osm_id": 12423666342, "display_name": "tower"}}, {"type": "Feature", "geometry": {"type": "Point", "coordinates": [-111.4195425, 45.9007506]}, "properties": {"power": "tower", "osm_id": 12423666343, "display_name": "tower"}}, {"type": "Feature", "geometry": {"type": "Point", "coordinates": [-111.4165898, 45.8995101]}, "properties": {"power": "tower", "osm_id": 12423666344, "display_name": "tower"}}, {"type": "Feature", "geometry": {"type": "Point", "coordinates": [-111.4151927, 45.8989273]}, "properties": {"power": "tower", "osm_id": 12423666345, "display_name": "tower"}}, {"type": "Feature", "geometry": {"type": "Point", "coordinates": [-111.4142177, 45.8985187]}, "properties": {"power": "tower", "osm_id": 12423666346, "display_name": "tower"}}, {"type": "Feature", "geometry": {"type": "Point", "coordinates": [-111.4127318, 45.897893]}, "properties": {"power": "tower", "osm_id": 12423666347, "display_name": "tower"}}, {"type": "Feature", "geometry": {"type": "Point", "coordinates": [-111.4112299, 45.8972637]}, "properties": {"power": "tower", "osm_id": 12423666348, "display_name": "tower"}}, {"type": "Feature", "geometry": {"type": "Point", "coordinates": [-111.408505, 45.8961225]}, "properties": {"power": "tower", "osm_id": 12423666349, "display_name": "tower"}}, {"type": "Feature", "geometry": {"type": "Point", "coordinates": [-111.4070401, 45.8955052]}, "properties": {"power": "tower", "osm_id": 12423666350, "display_name": "tower"}}, {"type": "Feature", "geometry": {"type": "Point", "coordinates": [-111.4040191, 45.8942348]}, "properties": {"power": "tower", "osm_id": 12423666351, "display_name": "tower"}}, {"type": "Feature", "geometry": {"type": "Point", "coordinates": [-111.402747, 45.8937007]}, "properties": {"power": "tower", "osm_id": 12423666352, "display_name": "tower"}}, {"type": "Feature", "geometry": {"type": "Point", "coordinates": [-111.401499, 45.8931766]}, "properties": {"power": "tower", "osm_id": 12423666353, "display_name": "tower"}}, {"type": "Feature", "geometry": {"type": "Point", "coordinates": [-111.3999869, 45.8925418]}, "properties": {"power": "tower", "osm_id": 12423666354, "display_name": "tower"}}, {"type": "Feature", "geometry": {"type": "Point", "coordinates": [-111.3821457, 45.8828306]}, "properties": {"power": "tower", "osm_id": 12423666355, "display_name": "tower"}}, {"type": "Feature", "geometry": {"type": "Point", "coordinates": [-111.3811809, 45.8823334]}, "properties": {"power": "tower", "osm_id": 12423666356, "display_name": "tower"}}, {"type": "Feature", "geometry": {"type": "Point", "coordinates": [-111.3803547, 45.881896]}, "properties": {"power": "tower", "osm_id": 12423666357, "display_name": "tower"}}, {"type": "Feature", "geometry": {"type": "Point", "coordinates": [-111.3784195, 45.8808645]}, "properties": {"power": "tower", "osm_id": 12423666358, "display_name": "tower"}}, {"type": "Feature", "geometry": {"type": "Point", "coordinates": [-111.3778545, 45.8805648]}, "properties": {"power": "tower", "osm_id": 12423666359, "display_name": "tower"}}, {"type": "Feature", "geometry": {"type": "Point", "coordinates": [-111.3764968, 45.8798401]}, "properties": {"power": "tower", "osm_id": 12423666360, "display_name": "tower"}}, {"type": "Feature", "geometry": {"type": "Point", "coordinates": [-111.3755932, 45.8793591]}, "properties": {"power": "tower", "osm_id": 12423666361, "display_name": "tower"}}, {"type": "Feature", "geometry": {"type": "Point", "coordinates": [-111.3746641, 45.8788614]}, "properties": {"power": "tower", "osm_id": 12423666362, "display_name": "tower"}}, {"type": "Feature", "geometry": {"type": "Point", "coordinates": [-111.3736598, 45.8783275]}, "properties": {"power": "tower", "osm_id": 12423666363, "display_name": "tower"}}, {"type": "Feature", "geometry": {"type": "Point", "coordinates": [-111.3726554, 45.8777934]}, "properties": {"power": "tower", "osm_id": 12423666364, "display_name": "tower"}}, {"type": "Feature", "geometry": {"type": "Point", "coordinates": [-111.3719551, 45.8774211]}, "properties": {"power": "tower", "osm_id": 12423666365, "display_name": "tower"}}, {"type": "Feature", "geometry": {"type": "Point", "coordinates": [-111.3712355, 45.877028]}, "properties": {"power": "tower", "osm_id": 12423666366, "display_name": "tower"}}, {"type": "Feature", "geometry": {"type": "Point", "coordinates": [-111.3703608, 45.8765645]}, "properties": {"power": "tower", "osm_id": 12423666367, "display_name": "tower"}}, {"type": "Feature", "geometry": {"type": "Point", "coordinates": [-111.3685898, 45.8756244]}, "properties": {"power": "tower", "osm_id": 12423666368, "display_name": "tower"}}, {"type": "Feature", "geometry": {"type": "Point", "coordinates": [-111.3676934, 45.8751464]}, "properties": {"power": "tower", "osm_id": 12423666369, "display_name": "tower"}}, {"type": "Feature", "geometry": {"type": "Point", "coordinates": [-111.3667917, 45.8746655]}, "properties": {"power": "tower", "osm_id": 12423666370, "display_name": "tower"}}, {"type": "Feature", "geometry": {"type": "Point", "coordinates": [-111.3658764, 45.8741774]}, "properties": {"power": "tower", "osm_id": 12423666371, "display_name": "tower"}}, {"type": "Feature", "geometry": {"type": "Point", "coordinates": [-111.3649697, 45.8736939]}, "properties": {"power": "tower", "osm_id": 12423666372, "display_name": "tower"}}, {"type": "Feature", "geometry": {"type": "Point", "coordinates": [-111.364033, 45.8731944]}, "properties": {"power": "tower", "osm_id": 12423666373, "display_name": "tower"}}, {"type": "Feature", "geometry": {"type": "Point", "coordinates": [-111.3631001, 45.8726964]}, "properties": {"power": "tower", "osm_id": 12423666374, "display_name": "tower"}}, {"type": "Feature", "geometry": {"type": "Point", "coordinates": [-111.3621622, 45.8721963]}, "properties": {"power": "tower", "osm_id": 12423666375, "display_name": "tower"}}, {"type": "Feature", "geometry": {"type": "Point", "coordinates": [-111.3612629, 45.8717168]}, "properties": {"power": "tower", "osm_id": 12423666376, "display_name": "tower"}}, {"type": "Feature", "geometry": {"type": "Point", "coordinates": [-111.36038, 45.871246]}, "properties": {"power": "tower", "osm_id": 12423666377, "display_name": "tower"}}, {"type": "Feature", "geometry": {"type": "Point", "coordinates": [-111.3594822, 45.8707672]}, "properties": {"power": "tower", "osm_id": 12423666378, "display_name": "tower"}}, {"type": "Feature", "geometry": {"type": "Point", "coordinates": [-111.358571, 45.8702813]}, "properties": {"power": "tower", "osm_id": 12423666379, "display_name": "tower"}}, {"type": "Feature", "geometry": {"type": "Point", "coordinates": [-111.3577293, 45.8698325]}, "properties": {"power": "tower", "osm_id": 12423666380, "display_name": "tower"}}, {"type": "Feature", "geometry": {"type": "Point", "coordinates": [-111.356879, 45.8693791]}, "properties": {"power": "tower", "osm_id": 12423666381, "display_name": "tower"}}, {"type": "Feature", "geometry": {"type": "Point", "coordinates": [-111.3559993, 45.86891]}, "properties": {"power": "tower", "osm_id": 12423666382, "display_name": "tower"}}, {"type": "Feature", "geometry": {"type": "Point", "coordinates": [-111.3551747, 45.8684703]}, "properties": {"power": "tower", "osm_id": 12423666383, "display_name": "tower"}}, {"type": "Feature", "geometry": {"type": "Point", "coordinates": [-111.3513372, 45.8671384]}, "properties": {"power": "tower", "osm_id": 12423666384, "display_name": "tower"}}, {"type": "Feature", "geometry": {"type": "Point", "coordinates": [-111.3503699, 45.8666241]}, "properties": {"power": "tower", "osm_id": 12423666385, "display_name": "tower"}}, {"type": "Feature", "geometry": {"type": "Point", "coordinates": [-111.3494446, 45.8661321]}, "properties": {"power": "tower", "osm_id": 12423666386, "display_name": "tower"}}, {"type": "Feature", "geometry": {"type": "Point", "coordinates": [-111.3465729, 45.8648659]}, "properties": {"power": "tower", "osm_id": 12423666387, "display_name": "tower"}}, {"type": "Feature", "geometry": {"type": "Point", "coordinates": [-111.3456401, 45.8643687]}, "properties": {"power": "tower", "osm_id": 12423666388, "display_name": "tower"}}, {"type": "Feature", "geometry": {"type": "Point", "coordinates": [-111.3447384, 45.863888]}, "properties": {"power": "tower", "osm_id": 12423666389, "display_name": "tower"}}, {"type": "Feature", "geometry": {"type": "Point", "coordinates": [-111.3438124, 45.8633944]}, "properties": {"power": "tower", "osm_id": 12423666390, "display_name": "tower"}}, {"type": "Feature", "geometry": {"type": "Point", "coordinates": [-111.3429014, 45.8629088]}, "properties": {"power": "tower", "osm_id": 12423666391, "display_name": "tower"}}, {"type": "Feature", "geometry": {"type": "Point", "coordinates": [-111.3419802, 45.8624177]}, "properties": {"power": "tower", "osm_id": 12423666392, "display_name": "tower"}}, {"type": "Feature", "geometry": {"type": "Point", "coordinates": [-111.3410429, 45.861918]}, "properties": {"power": "tower", "osm_id": 12423666393, "display_name": "tower"}}, {"type": "Feature", "geometry": {"type": "Point", "coordinates": [-111.3401049, 45.861418]}, "properties": {"power": "tower", "osm_id": 12423666394, "display_name": "tower"}}, {"type": "Feature", "geometry": {"type": "Point", "coordinates": [-111.3391704, 45.8609198]}, "properties": {"power": "tower", "osm_id": 12423666395, "display_name": "tower"}}, {"type": "Feature", "geometry": {"type": "Point", "coordinates": [-111.3382928, 45.860452]}, "properties": {"power": "tower", "osm_id": 12423666396, "display_name": "tower"}}, {"type": "Feature", "geometry": {"type": "Point", "coordinates": [-111.3372808, 45.8599087]}, "properties": {"power": "tower", "osm_id": 12423666397, "display_name": "tower"}}, {"type": "Feature", "geometry": {"type": "Point", "coordinates": [-111.3366213, 45.8595532]}, "properties": {"power": "tower", "osm_id": 12423666398, "display_name": "tower"}}, {"type": "Feature", "geometry": {"type": "Point", "coordinates": [-111.335845, 45.8591381]}, "properties": {"power": "tower", "osm_id": 12423666399, "display_name": "tower"}}, {"type": "Feature", "geometry": {"type": "Point", "coordinates": [-111.3350633, 45.8587238]}, "properties": {"power": "tower", "osm_id": 12423666400, "display_name": "tower"}}, {"type": "Feature", "geometry": {"type": "Point", "coordinates": [-111.3342938, 45.8583159]}, "properties": {"power": "tower", "osm_id": 12424266901, "display_name": "tower"}}, {"type": "Feature", "geometry": {"type": "Point", "coordinates": [-111.3336118, 45.8579544]}, "properties": {"power": "tower", "osm_id": 12424266902, "display_name": "tower"}}, {"type": "Feature", "geometry": {"type": "Point", "coordinates": [-111.332337, 45.8572631]}, "properties": {"power": "tower", "osm_id": 12424266903, "display_name": "tower"}}, {"type": "Feature", "geometry": {"type": "Point", "coordinates": [-111.328203, 45.8551052]}, "properties": {"power": "tower", "osm_id": 12424266904, "display_name": "tower"}}, {"type": "Feature", "geometry": {"type": "Point", "coordinates": [-111.3254682, 45.8526295]}, "properties": {"power": "tower", "osm_id": 12424266905, "display_name": "tower"}}, {"type": "Feature", "geometry": {"type": "Point", "coordinates": [-111.3245893, 45.8521594]}, "properties": {"power": "tower", "osm_id": 12424266906, "display_name": "tower"}}, {"type": "Feature", "geometry": {"type": "Point", "coordinates": [-111.3238127, 45.8517441]}, "properties": {"power": "tower", "osm_id": 12424266907, "display_name": "tower"}}, {"type": "Feature", "geometry": {"type": "Point", "coordinates": [-111.3229186, 45.8512659]}, "properties": {"power": "tower", "osm_id": 12424266908, "display_name": "tower"}}, {"type": "Feature", "geometry": {"type": "Point", "coordinates": [-111.3220328, 45.8507921]}, "properties": {"power": "tower", "osm_id": 12424266909, "display_name": "tower"}}, {"type": "Feature", "geometry": {"type": "Point", "coordinates": [-111.3211405, 45.8503148]}, "properties": {"power": "tower", "osm_id": 12424266910, "display_name": "tower"}}, {"type": "Feature", "geometry": {"type": "Point", "coordinates": [-111.3202433, 45.8498349]}, "properties": {"power": "tower", "osm_id": 12424266911, "display_name": "tower"}}, {"type": "Feature", "geometry": {"type": "Point", "coordinates": [-111.3193322, 45.8493476]}, "properties": {"power": "tower", "osm_id": 12424266912, "display_name": "tower"}}, {"type": "Feature", "geometry": {"type": "Point", "coordinates": [-111.318432, 45.8488661]}, "properties": {"power": "tower", "osm_id": 12424266913, "display_name": "tower"}}, {"type": "Feature", "geometry": {"type": "Point", "coordinates": [-111.3164768, 45.8478213]}, "properties": {"power": "tower", "osm_id": 12424266914, "display_name": "tower"}}, {"type": "Feature", "geometry": {"type": "Point", "coordinates": [-111.3139195, 45.846345]}, "properties": {"power": "tower", "osm_id": 12424266915, "display_name": "tower"}}, {"type": "Feature", "geometry": {"type": "Point", "coordinates": [-111.3105526, 45.8447126]}, "properties": {"power": "tower", "osm_id": 12424266916, "display_name": "tower"}}, {"type": "Feature", "geometry": {"type": "Point", "coordinates": [-111.3095964, 45.8442043]}, "properties": {"power": "tower", "osm_id": 12424266917, "display_name": "tower"}}, {"type": "Feature", "geometry": {"type": "Point", "coordinates": [-111.3086525, 45.8437027]}, "properties": {"power": "tower", "osm_id": 12424266918, "display_name": "tower"}}, {"type": "Feature", "geometry": {"type": "Point", "coordinates": [-111.3077129, 45.8432033]}, "properties": {"power": "tower", "osm_id": 12424266919, "display_name": "tower"}}, {"type": "Feature", "geometry": {"type": "Point", "coordinates": [-111.3069777, 45.842809]}, "properties": {"power": "tower", "osm_id": 12424266920, "display_name": "tower"}}, {"type": "Feature", "geometry": {"type": "Point", "coordinates": [-111.3060659, 45.8423244]}, "properties": {"power": "tower", "osm_id": 12424266921, "display_name": "tower"}}, {"type": "Feature", "geometry": {"type": "Point", "coordinates": [-111.3051312, 45.8418277]}, "properties": {"power": "tower", "osm_id": 12424266922, "display_name": "tower"}}, {"type": "Feature", "geometry": {"type": "Point", "coordinates": [-111.3042178, 45.8413423]}, "properties": {"power": "tower", "osm_id": 12424266923, "display_name": "tower"}}, {"type": "Feature", "geometry": {"type": "Point", "coordinates": [-111.3031007, 45.8407486]}, "properties": {"power": "tower", "osm_id": 12424266924, "display_name": "tower"}}, {"type": "Feature", "geometry": {"type": "Point", "coordinates": [-111.3020342, 45.8401818]}, "properties": {"power": "tower", "osm_id": 12424266925, "display_name": "tower"}}, {"type": "Feature", "geometry": {"type": "Point", "coordinates": [-111.3010137, 45.8396395]}, "properties": {"power": "tower", "osm_id": 12424266926, "display_name": "tower"}}, {"type": "Feature", "geometry": {"type": "Point", "coordinates": [-111.3000009, 45.8391013]}, "properties": {"power": "tower", "osm_id": 12424266927, "display_name": "tower"}}, {"type": "Feature", "geometry": {"type": "Point", "coordinates": [-111.2989815, 45.8385595]}, "properties": {"power": "tower", "osm_id": 12424266928, "display_name": "tower"}}, {"type": "Feature", "geometry": {"type": "Point", "coordinates": [-111.2979394, 45.8380057]}, "properties": {"power": "tower", "osm_id": 12424266929, "display_name": "tower"}}, {"type": "Feature", "geometry": {"type": "Point", "coordinates": [-111.296876, 45.8374405]}, "properties": {"power": "tower", "osm_id": 12424266930, "display_name": "tower"}}, {"type": "Feature", "geometry": {"type": "Point", "coordinates": [-111.2958321, 45.8368857]}, "properties": {"power": "tower", "osm_id": 12424266931, "display_name": "tower"}}, {"type": "Feature", "geometry": {"type": "Point", "coordinates": [-111.2949358, 45.8364093]}, "properties": {"power": "tower", "osm_id": 12424266932, "display_name": "tower"}}, {"type": "Feature", "geometry": {"type": "Point", "coordinates": [-111.2940307, 45.8359283]}, "properties": {"power": "tower", "osm_id": 12424266933, "display_name": "tower"}}, {"type": "Feature", "geometry": {"type": "Point", "coordinates": [-111.2932089, 45.8354915]}, "properties": {"power": "tower", "osm_id": 12424266934, "display_name": "tower"}}, {"type": "Feature", "geometry": {"type": "Point", "coordinates": [-111.2923627, 45.8350418]}, "properties": {"power": "tower", "osm_id": 12424266935, "display_name": "tower"}}, {"type": "Feature", "geometry": {"type": "Point", "coordinates": [-111.2914878, 45.834545]}, "properties": {"power": "tower", "osm_id": 12424266936, "display_name": "tower"}}, {"type": "Feature", "geometry": {"type": "Point", "coordinates": [-111.2906031, 45.834062]}, "properties": {"power": "tower", "osm_id": 12424266937, "display_name": "tower"}}, {"type": "Feature", "geometry": {"type": "Point", "coordinates": [-111.2897772, 45.8336185]}, "properties": {"power": "tower", "osm_id": 12424266938, "display_name": "tower"}}, {"type": "Feature", "geometry": {"type": "Point", "coordinates": [-111.2889729, 45.8331919]}, "properties": {"power": "tower", "osm_id": 12424266939, "display_name": "tower"}}, {"type": "Feature", "geometry": {"type": "Point", "coordinates": [-111.2881312, 45.8327382]}, "properties": {"power": "tower", "osm_id": 12424266940, "display_name": "tower"}}, {"type": "Feature", "geometry": {"type": "Point", "coordinates": [-111.2871592, 45.8322265]}, "properties": {"power": "tower", "osm_id": 12424266941, "display_name": "tower"}}, {"type": "Feature", "geometry": {"type": "Point", "coordinates": [-111.2862139, 45.8317265]}, "properties": {"power": "tower", "osm_id": 12424266942, "display_name": "tower"}}, {"type": "Feature", "geometry": {"type": "Point", "coordinates": [-111.2852493, 45.8312039]}, "properties": {"power": "tower", "osm_id": 12424266943, "display_name": "tower"}}, {"type": "Feature", "geometry": {"type": "Point", "coordinates": [-111.2843587, 45.8307336]}, "properties": {"power": "tower", "osm_id": 12424266944, "display_name": "tower"}}, {"type": "Feature", "geometry": {"type": "Point", "coordinates": [-111.2834741, 45.8302554]}, "properties": {"power": "tower", "osm_id": 12424266945, "display_name": "tower"}}, {"type": "Feature", "geometry": {"type": "Point", "coordinates": [-111.2825034, 45.8297362]}, "properties": {"power": "tower", "osm_id": 12424266946, "display_name": "tower"}}, {"type": "Feature", "geometry": {"type": "Point", "coordinates": [-111.2815519, 45.8292261]}, "properties": {"power": "tower", "osm_id": 12424266947, "display_name": "tower"}}, {"type": "Feature", "geometry": {"type": "Point", "coordinates": [-111.2805904, 45.8287151]}, "properties": {"power": "tower", "osm_id": 12424266948, "display_name": "tower"}}, {"type": "Feature", "geometry": {"type": "Point", "coordinates": [-111.2796354, 45.8282016]}, "properties": {"power": "tower", "osm_id": 12424266949, "display_name": "tower"}}, {"type": "Feature", "geometry": {"type": "Point", "coordinates": [-111.2786897, 45.8277054]}, "properties": {"power": "tower", "osm_id": 12424266950, "display_name": "tower"}}, {"type": "Feature", "geometry": {"type": "Point", "coordinates": [-111.2777494, 45.8271958]}, "properties": {"power": "tower", "osm_id": 12424266951, "display_name": "tower"}}, {"type": "Feature", "geometry": {"type": "Point", "coordinates": [-111.2767954, 45.8266862]}, "properties": {"power": "tower", "osm_id": 12424266952, "display_name": "tower"}}, {"type": "Feature", "geometry": {"type": "Point", "coordinates": [-111.2759777, 45.8262517]}, "properties": {"power": "tower", "osm_id": 12424266953, "display_name": "tower"}}, {"type": "Feature", "geometry": {"type": "Point", "coordinates": [-111.27504, 45.8257478]}, "properties": {"power": "tower", "osm_id": 12424266954, "display_name": "tower"}}, {"type": "Feature", "geometry": {"type": "Point", "coordinates": [-111.2740741, 45.8252403]}, "properties": {"power": "tower", "osm_id": 12424266955, "display_name": "tower"}}, {"type": "Feature", "geometry": {"type": "Point", "coordinates": [-111.2731338, 45.8247449]}, "properties": {"power": "tower", "osm_id": 12424266956, "display_name": "tower"}}, {"type": "Feature", "geometry": {"type": "Point", "coordinates": [-111.2722295, 45.8242693]}, "properties": {"power": "tower", "osm_id": 12424266957, "display_name": "tower"}}, {"type": "Feature", "geometry": {"type": "Point", "coordinates": [-111.2713125, 45.8237995]}, "properties": {"power": "tower", "osm_id": 12424266958, "display_name": "tower"}}, {"type": "Feature", "geometry": {"type": "Point", "coordinates": [-111.2704517, 45.8233496]}, "properties": {"power": "tower", "osm_id": 12424266959, "display_name": "tower"}}, {"type": "Feature", "geometry": {"type": "Point", "coordinates": [-111.2695941, 45.8229068]}, "properties": {"power": "tower", "osm_id": 12424266960, "display_name": "tower"}}, {"type": "Feature", "geometry": {"type": "Point", "coordinates": [-111.2679376, 45.8220494]}, "properties": {"power": "tower", "osm_id": 12424266961, "display_name": "tower"}}, {"type": "Feature", "geometry": {"type": "Point", "coordinates": [-111.2670491, 45.821591]}, "properties": {"power": "tower", "osm_id": 12424266962, "display_name": "tower"}}, {"type": "Feature", "geometry": {"type": "Point", "coordinates": [-111.2661555, 45.82113]}, "properties": {"power": "tower", "osm_id": 12424266963, "display_name": "tower"}}, {"type": "Feature", "geometry": {"type": "Point", "coordinates": [-111.2652557, 45.8206657]}, "properties": {"power": "tower", "osm_id": 12424266964, "display_name": "tower"}}, {"type": "Feature", "geometry": {"type": "Point", "coordinates": [-111.2643807, 45.8202142]}, "properties": {"power": "tower", "osm_id": 12424266965, "display_name": "tower"}}, {"type": "Feature", "geometry": {"type": "Point", "coordinates": [-111.2634631, 45.8197408]}, "properties": {"power": "tower", "osm_id": 12424266966, "display_name": "tower"}}, {"type": "Feature", "geometry": {"type": "Point", "coordinates": [-111.2625607, 45.8192752]}, "properties": {"power": "tower", "osm_id": 12424266967, "display_name": "tower"}}, {"type": "Feature", "geometry": {"type": "Point", "coordinates": [-111.2616326, 45.8187963]}, "properties": {"power": "tower", "osm_id": 12424266968, "display_name": "tower"}}, {"type": "Feature", "geometry": {"type": "Point", "coordinates": [-111.2607453, 45.8183385]}, "properties": {"power": "tower", "osm_id": 12424266969, "display_name": "tower"}}, {"type": "Feature", "geometry": {"type": "Point", "coordinates": [-111.2598253, 45.8178638]}, "properties": {"power": "tower", "osm_id": 12424266970, "display_name": "tower"}}, {"type": "Feature", "geometry": {"type": "Point", "coordinates": [-111.2588852, 45.8173787]}, "properties": {"power": "tower", "osm_id": 12424266971, "display_name": "tower"}}, {"type": "Feature", "geometry": {"type": "Point", "coordinates": [-111.2580709, 45.8169586]}, "properties": {"power": "tower", "osm_id": 12424266972, "display_name": "tower"}}, {"type": "Feature", "geometry": {"type": "Point", "coordinates": [-111.2571284, 45.8164723]}, "properties": {"power": "tower", "osm_id": 12424266973, "display_name": "tower"}}, {"type": "Feature", "geometry": {"type": "Point", "coordinates": [-111.2561932, 45.8159897]}, "properties": {"power": "tower", "osm_id": 12424266974, "display_name": "tower"}}, {"type": "Feature", "geometry": {"type": "Point", "coordinates": [-111.2553223, 45.8155403]}, "properties": {"power": "tower", "osm_id": 12424266975, "display_name": "tower"}}, {"type": "Feature", "geometry": {"type": "Point", "coordinates": [-111.2544099, 45.8150695]}, "properties": {"power": "tower", "osm_id": 12424266976, "display_name": "tower"}}, {"type": "Feature", "geometry": {"type": "Point", "coordinates": [-111.2535056, 45.8146029]}, "properties": {"power": "tower", "osm_id": 12424266977, "display_name": "tower"}}, {"type": "Feature", "geometry": {"type": "Point", "coordinates": [-111.2526126, 45.8141421]}, "properties": {"power": "tower", "osm_id": 12424266978, "display_name": "tower"}}, {"type": "Feature", "geometry": {"type": "Point", "coordinates": [-111.2517114, 45.813677]}, "properties": {"power": "tower", "osm_id": 12424266979, "display_name": "tower"}}, {"type": "Feature", "geometry": {"type": "Point", "coordinates": [-111.2508362, 45.8132254]}, "properties": {"power": "tower", "osm_id": 12424266980, "display_name": "tower"}}, {"type": "Feature", "geometry": {"type": "Point", "coordinates": [-111.2499547, 45.8127706]}, "properties": {"power": "tower", "osm_id": 12424266981, "display_name": "tower"}}, {"type": "Feature", "geometry": {"type": "Point", "coordinates": [-111.2481363, 45.8118322]}, "properties": {"power": "tower", "osm_id": 12424266982, "display_name": "tower"}}, {"type": "Feature", "geometry": {"type": "Point", "coordinates": [-111.2472879, 45.8113944]}, "properties": {"power": "tower", "osm_id": 12424266983, "display_name": "tower"}}, {"type": "Feature", "geometry": {"type": "Point", "coordinates": [-111.246408, 45.8109404]}, "properties": {"power": "tower", "osm_id": 12424266984, "display_name": "tower"}}, {"type": "Feature", "geometry": {"type": "Point", "coordinates": [-111.2454611, 45.8104517]}, "properties": {"power": "tower", "osm_id": 12424266985, "display_name": "tower"}}, {"type": "Feature", "geometry": {"type": "Point", "coordinates": [-111.2444917, 45.8099514]}, "properties": {"power": "tower", "osm_id": 12424266986, "display_name": "tower"}}, {"type": "Feature", "geometry": {"type": "Point", "coordinates": [-111.2435234, 45.8094518]}, "properties": {"power": "tower", "osm_id": 12424266987, "display_name": "tower"}}, {"type": "Feature", "geometry": {"type": "Point", "coordinates": [-111.2425523, 45.8089506]}, "properties": {"power": "tower", "osm_id": 12424266988, "display_name": "tower"}}, {"type": "Feature", "geometry": {"type": "Point", "coordinates": [-111.2415844, 45.8084511]}, "properties": {"power": "tower", "osm_id": 12424266989, "display_name": "tower"}}, {"type": "Feature", "geometry": {"type": "Point", "coordinates": [-111.2406505, 45.8079692]}, "properties": {"power": "tower", "osm_id": 12424266990, "display_name": "tower"}}, {"type": "Feature", "geometry": {"type": "Point", "coordinates": [-111.4279756, 45.9129019]}, "properties": {"cables": "6", "circuits": "2", "frequency": "60", "layer": "2", "power": "line", "tiger:cfcc": "C20", "tiger:county": "Gallatin, MT", "voltage": "161000;69000", "osm_id": 5534335, "display_name": "line"}}, {"type": "Feature", "geometry": {"type": "Point", "coordinates": [-111.3408048, 45.8616799]}, "properties": {"cables": "6", "circuits": "2", "power": "line", "voltage": "161000;69000", "osm_id": 1046990023, "display_name": "line"}}, {"type": "Feature", "geometry": {"type": "Point", "coordinates": [-111.3533943, 45.8679391]}, "properties": {"cables": "3", "power": "line", "voltage": "69000", "osm_id": 1046990024, "display_name": "line"}}, {"type": "Feature", "geometry": {"type": "Point", "coordinates": [-111.3533943, 45.8678995]}, "properties": {"cables": "3", "power": "line", "voltage": "161000", "osm_id": 1046990025, "display_name": "line"}}, {"type": "Feature", "geometry": {"type": "Point", "coordinates": [-111.264828, 45.8209574]}, "properties": {"cables": "6", "circuits": "2", "power": "line", "voltage": "161000;69000", "osm_id": 1046990026, "display_name": "line"}}, {"type": "Feature", "geometry": {"type": "Point", "coordinates": [-111.3269254, 45.8539093]}, "properties": {"cables": "3", "power": "line", "voltage": "69000", "osm_id": 1221429518, "display_name": "line"}}, {"type": "Feature", "geometry": {"type": "Point", "coordinates": [-111.3269254, 45.8539093]}, "properties": {"cables": "3", "power": "line", "voltage": "161000", "osm_id": 1221429519, "display_name": "line"}}, {"type": "Feature", "geometry": {"type": "Point", "coordinates": [-111.3719573, 45.8771349]}, "properties": {"cables": "6", "circuits": "2", "frequency": "60", "layer": "2", "power": "line", "tiger:cfcc": "C20", "tiger:county": "Gallatin, MT", "voltage": "161000;69000", "osm_id": 1226037617, "display_name": "line"}}, {"type": "Feature", "geometry": {"type": "Point", "coordinates": [-111.3925839, 45.8884598]}, "properties": {"cables": "3", "power": "line", "voltage": "161000", "osm_id": 1226037618, "display_name": "line"}}, {"type": "Feature", "geometry": {"type": "Point", "coordinates": [-111.3925839, 45.8884598]}, "properties": {"cables": "3", "frequency": "60", "layer": "2", "power": "line", "tiger:cfcc": "C20", "tiger:county": "Gallatin, MT", "voltage": "69000", "osm_id": 1226037619, "display_name": "line"}}, {"type": "Feature", "geometry": {"type": "Point", "coordinates": [-111.3291861, 45.8558008]}, "properties": {"cables": "3", "power": "line", "voltage": "69000", "osm_id": 1299145659, "display_name": "line"}}, {"type": "Feature", "geometry": {"type": "Point", "coordinates": [-111.328422, 45.8552225]}, "properties": {"cables": "6", "circuits": "2", "power": "line", "voltage": "161000;69000", "osm_id": 1342808592, "display_name": "line"}}]}