{"type": "FeatureCollection", "features": [{"type": "Feature", "geometry": {"type": "Point", "coordinates": [-111.271227, 45.8245358]}, "properties": {"access": "yes", "fishing": "yes", "leisure": "fishing", "osm_id": 9603610958, "osm_type": "node", "display_name": "fishing"}}, {"type": "Feature", "geometry": {"type": "Point", "coordinates": [-111.3367474, 45.8910884]}, "properties": {"leisure": "slipway", "osm_id": 12898372030, "osm_type": "node", "display_name": "slipway"}}, {"type": "Feature", "geometry": {"type": "Point", "coordinates": [-111.333844, 45.8525322]}, "properties": {"leisure": "playground", "osm_id": 169918202, "osm_type": "way", "display_name": "playground"}}, {"type": "Feature", "geometry": {"type": "Point", "coordinates": [-111.3299936, 45.8527512]}, "properties": {"leisure": "pitch", "sport": "baseball", "osm_id": 169918203, "osm_type": "way", "display_name": "pitch"}}, {"type": "Feature", "geometry": {"type": "Point", "coordinates": [-111.3318791, 45.8495617]}, "properties": {"dog": "unleashed", "leisure": "park", "name": "King's Bark Park", "source": "on-site signage", "osm_id": 169918205, "osm_type": "way", "display_name": "King's Bark Park"}}, {"type": "Feature", "geometry": {"type": "Point", "coordinates": [-111.3317352, 45.8518885]}, "properties": {"leisure": "pitch", "sport": "baseball", "osm_id": 169918228, "osm_type": "way", "display_name": "pitch"}}, {"type": "Feature", "geometry": {"type": "Point", "coordinates": [-111.3311813, 45.8527732]}, "properties": {"leisure": "pitch", "sport": "baseball", "osm_id": 169918233, "osm_type": "way", "display_name": "pitch"}}, {"type": "Feature", "geometry": {"type": "Point", "coordinates": [-111.3333745, 45.8525308]}, "properties": {"leisure": "playground", "osm_id": 169918234, "osm_type": "way", "display_name": "playground"}}, {"type": "Feature", "geometry": {"type": "Point", "coordinates": [-111.3336006, 45.8525271]}, "properties": {"leisure": "playground", "osm_id": 169918243, "osm_type": "way", "display_name": "playground"}}, {"type": "Feature", "geometry": {"type": "Point", "coordinates": [-111.3300145, 45.8519096]}, "properties": {"leisure": "pitch", "sport": "baseball", "osm_id": 169918246, "osm_type": "way", "display_name": "pitch"}}, {"type": "Feature", "geometry": {"type": "Point", "coordinates": [-111.3333737, 45.852327]}, "properties": {"leisure": "playground", "playground": "swing", "osm_id": 169918256, "osm_type": "way", "display_name": "playground"}}, {"type": "Feature", "geometry": {"type": "Point", "coordinates": [-111.3328105, 45.8518742]}, "properties": {"leisure": "park", "name": "Taylor Park", "osm_id": 169920486, "osm_type": "way", "display_name": "Taylor Park"}}, {"type": "Feature", "geometry": {"type": "Point", "coordinates": [-111.3294842, 45.8609776]}, "properties": {"leisure": "pitch", "sport": "tennis", "osm_id": 264880370, "osm_type": "way", "display_name": "pitch"}}, {"type": "Feature", "geometry": {"type": "Point", "coordinates": [-111.3293034, 45.8608815]}, "properties": {"leisure": "pitch", "sport": "tennis", "osm_id": 264880371, "osm_type": "way", "display_name": "pitch"}}, {"type": "Feature", "geometry": {"type": "Point", "coordinates": [-111.3290052, 45.8611389]}, "properties": {"leisure": "pitch", "sport": "tennis", "osm_id": 264880372, "osm_type": "way", "display_name": "pitch"}}, {"type": "Feature", "geometry": {"type": "Point", "coordinates": [-111.3276198, 45.860485]}, "properties": {"leisure": "park", "name": "Altenbrand Park", "osm_id": 338690598, "osm_type": "way", "display_name": "Altenbrand Park"}}, {"type": "Feature", "geometry": {"type": "Point", "coordinates": [-111.3335524, 45.8570268]}, "properties": {"leisure": "park", "name": "Railroad Park", "osm_id": 338690606, "osm_type": "way", "display_name": "Railroad Park"}}, {"type": "Feature", "geometry": {"type": "Point", "coordinates": [-111.331591, 45.8559745]}, "properties": {"leisure": "park", "name": "Railroad Park", "osm_id": 338690607, "osm_type": "way", "display_name": "Railroad Park"}}, {"type": "Feature", "geometry": {"type": "Point", "coordinates": [-111.3286552, 45.8633014]}, "properties": {"leisure": "track", "osm_id": 338704558, "osm_type": "way", "display_name": "track"}}, {"type": "Feature", "geometry": {"type": "Point", "coordinates": [-111.3297149, 45.8623728]}, "properties": {"leisure": "pitch", "sport": "basketball", "osm_id": 338704559, "osm_type": "way", "display_name": "pitch"}}, {"type": "Feature", "geometry": {"type": "Point", "coordinates": [-111.3385389, 45.8615376]}, "properties": {"access": "private", "leisure": "swimming_pool", "location": "outdoor", "swimming_pool": "personal", "osm_id": 893911477, "osm_type": "way", "display_name": "swimming_pool"}}, {"type": "Feature", "geometry": {"type": "Point", "coordinates": [-111.3419876, 45.8666364]}, "properties": {"leisure": "park", "osm_id": 1107283215, "osm_type": "way", "display_name": "park"}}, {"type": "Feature", "geometry": {"type": "Point", "coordinates": [-111.3421753, 45.8668383]}, "properties": {"leisure": "playground", "osm_id": 1107283216, "osm_type": "way", "display_name": "playground"}}, {"type": "Feature", "geometry": {"type": "Point", "coordinates": [-111.3387008, 45.8622364]}, "properties": {"leisure": "park", "osm_id": 1107283219, "osm_type": "way", "display_name": "park"}}, {"type": "Feature", "geometry": {"type": "Point", "coordinates": [-111.247255, 45.8154033]}, "properties": {"leisure": "park", "osm_id": 1277955966, "osm_type": "way", "display_name": "park"}}, {"type": "Feature", "geometry": {"type": "Point", "coordinates": [-111.2475083, 45.8149874]}, "properties": {"leisure": "pitch", "sport": "basketball", "osm_id": 1277955967, "osm_type": "way", "display_name": "pitch"}}, {"type": "Feature", "geometry": {"type": "Point", "coordinates": [-111.247519, 45.8147687]}, "properties": {"leisure": "playground", "osm_id": 1277955968, "osm_type": "way", "display_name": "playground"}}]}