{"type": "FeatureCollection", "features": [{"type": "Feature", "geometry": {"type": "Point", "coordinates": [-111.337049, 45.8537543]}, "properties": {"addr:city": "Manhattan", "addr:housenumber": "404", "addr:postcode": "59741", "addr:state": "MT", "addr:street": "South Broadway", "amenity": "fast_food", "brand": "Subway", "brand:wikidata": "Q244457", "cuisine": "sandwich", "name": "Subway", "opening_hours": "Mo-Sa 09:00-20:00; Su 10:00-07:00", "phone": "+1 406-284-9973", "takeaway": "yes", "website": "https://restaurants.subway.com/united-states/mt/manhattan/404-s-broadway", "osm_id": 1810784705, "osm_type": "node", "display_name": "Subway"}}, {"type": "Feature", "geometry": {"type": "Point", "coordinates": [-111.3332013, 45.855791]}, "properties": {"addr:city": "Manhattan", "addr:housenumber": "107", "addr:postcode": "59741", "addr:street": "Broadway Street South", "amenity": "cafe", "building": "yes", "name": "Garden Cafe", "osm_id": 264880355, "osm_type": "way", "display_name": "Garden Cafe"}}, {"type": "Feature", "geometry": {"type": "Point", "coordinates": [-111.3345259, 45.8570232]}, "properties": {"addr:city": "Manhattan", "addr:housenumber": "204", "addr:postcode": "59741", "addr:state": "MT", "addr:street": "West Main Street", "amenity": "restaurant", "bar": "yes", "building": "yes", "cuisine": "steak_house;burger;regional", "name": "The Manhattan Saloon", "outdoor_seating": "no", "phone": "+1-406-284-6929", "reservation": "recommended", "osm_id": 338690603, "osm_type": "way", "display_name": "The Manhattan Saloon"}}, {"type": "Feature", "geometry": {"type": "Point", "coordinates": [-111.4251843, 45.884973]}, "properties": {"amenity": "restaurant", "building": "yes", "cuisine": "steak_house", "name": "Land of Magic", "osm_id": 654757186, "osm_type": "way", "display_name": "Land of Magic"}}, {"type": "Feature", "geometry": {"type": "Point", "coordinates": [-111.3317019, 45.8554229]}, "properties": {"amenity": "bar", "amenity_1": "casino", "building": "yes", "name": "Broken Arrow", "osm_id": 1086332859, "osm_type": "way", "display_name": "Broken Arrow"}}, {"type": "Feature", "geometry": {"type": "Point", "coordinates": [-111.3366834, 45.853768]}, "properties": {"amenity": "cafe", "building": "yes", "cuisine": "coffee_shop", "outdoor_seating": "no", "osm_id": 1316937080, "osm_type": "way", "display_name": "cafe"}}, {"type": "Feature", "geometry": {"type": "Point", "coordinates": [-111.3350451, 45.8503275]}, "properties": {"addr:city": "Manhattan", "addr:housenumber": "140", "addr:postcode": "59741", "addr:state": "MT", "addr:street": "East Wooden Shoe Lane", "amenity": "cafe", "building": "yes", "cuisine": "coffee_shop", "drive_through": "yes", "name": "Sophie\u2019s Bakery, Cafe, & Espresso", "osm_id": 1447534319, "osm_type": "way", "display_name": "Sophie\u2019s Bakery, Cafe, & Espresso"}}]}