{"type": "FeatureCollection", "features": [{"type": "Feature", "geometry": {"type": "Point", "coordinates": [-111.3282528, 45.8615453]}, "properties": {"addr:city": "Manhattan", "addr:state": "MT", "amenity": "school", "ele": "1293", "gnis:feature_id": "1743502", "name": "Manhattan Public Schools", "osm_id": 357971998, "osm_type": "node", "display_name": "Manhattan Public Schools"}}, {"type": "Feature", "geometry": {"type": "Point", "coordinates": [-111.3298725, 45.8619326]}, "properties": {"amenity": "school", "name": "Manhattan High School", "osm_id": 3458413994, "osm_type": "node", "display_name": "Manhattan High School"}}, {"type": "Feature", "geometry": {"type": "Point", "coordinates": [-111.32854, 45.8624035]}, "properties": {"amenity": "school", "building": "yes", "osm_id": 338704553, "osm_type": "way", "display_name": "school"}}, {"type": "Feature", "geometry": {"type": "Point", "coordinates": [-111.3288418, 45.8616445]}, "properties": {"amenity": "school", "building": "yes", "osm_id": 338704555, "osm_type": "way", "display_name": "school"}}, {"type": "Feature", "geometry": {"type": "Point", "coordinates": [-111.3289382, 45.8622371]}, "properties": {"amenity": "school", "osm_id": 1107283220, "osm_type": "way", "display_name": "school"}}]}