{
  "type": "FeatureCollection",
  "features": [
    {
      "type": "Feature",
      "id": 2,
      "geometry": {
        "type": "Point",
        "coordinates": [
          -111.1836939040261,
          45.78417223062265
        ]
      },
      "properties": {
        "OBJECTID": 2,
        "STRUCTURE_ID": 0,
        "ADDRESS": "410",
        "LV_APT": " ",
        "DIRPRE": " ",
        "ROADNAME": "TRIPLE CROWN",
        "ROADTYPE": "RD",
        "DIRSUF": " ",
        "TYPE": "SCHOOL",
        "ELEVATION": 0,
        "COMMENTS": "BELGRADE MIDDLE SCHOOL",
        "JURISDICTION": "BELGRADE",
        "YEAR_BUILT": 0,
        "MAPPING_DATE": 1272672000000,
        "UPDATED": 1272672000000,
        "OLD_ADDRESS": " ",
        "OLD_DIRPRE": " ",
        "OLD_ROADNAME": " ",
        "OLD_ROADTYPE": " ",
        "OLD_DIRSUF": " ",
        "CONDO": "N",
        "PUBLICVIEW": "YES",
        "name": "Belgrade Middle School",
        "display_name": "Belgrade Middle School"
      }
    },
    {
      "type": "Feature",
      "id": 10,
      "geometry": {
        "type": "Point",
        "coordinates": [
          -111.33032748152998,
          45.861802672174534
        ]
      },
      "properties": {
        "OBJECTID": 10,
        "STRUCTURE_ID": 8735,
        "ADDRESS": "416",
        "LV_APT": " ",
        "DIRPRE": "N",
        "ROADNAME": "BROADWAY",
        "ROADTYPE": "ST",
        "DIRSUF": " ",
        "TYPE": "SCHOOL",
        "ELEVATION": 0,
        "COMMENTS": "MANHATTAN HIGH SCHOOL",
        "JURISDICTION": "MANHATTAN",
        "YEAR_BUILT": 0,
        "MAPPING_DATE": 865814400000,
        "UPDATED": 1093996800000,
        "OLD_ADDRESS": " ",
        "OLD_DIRPRE": " ",
        "OLD_ROADNAME": " ",
        "OLD_ROADTYPE": " ",
        "OLD_DIRSUF": " ",
        "CONDO": "N",
        "PUBLICVIEW": "YES",
        "name": "Manhattan High School",
        "display_name": "Manhattan High School"
      }
    },
    {
      "type": "Feature",
      "id": 12,
      "geometry": {
        "type": "Point",
        "coordinates": [
          -111.32753159635311,
          45.861614712480076
        ]
      },
      "properties": {
        "OBJECTID": 12,
        "STRUCTURE_ID": 0,
        "ADDRESS": "416",
        "LV_APT": " ",
        "DIRPRE": "N",
        "ROADNAME": "BROADWAY",
        "ROADTYPE": "ST",
        "DIRSUF": " ",
        "TYPE": "SCHOOL",
        "ELEVATION": 0,
        "COMMENTS": "MANHATTAN ELEMENTARY SCHOOL",
        "JURISDICTION": "MANHATTAN",
        "YEAR_BUILT": 0,
        "MAPPING_DATE": 1272672000000,
        "UPDATED": 1298937600000,
        "OLD_ADDRESS": " ",
        "OLD_DIRPRE": " ",
        "OLD_ROADNAME": " ",
        "OLD_ROADTYPE": " ",
        "OLD_DIRSUF": " ",
        "CONDO": "N",
        "PUBLICVIEW": "YES",
        "name": "Manhattan Elementary School",
        "display_name": "Manhattan Elementary School"
      }
    },
    {
      "type": "Feature",
      "id": 59,
      "geometry": {
        "type": "Point",
        "coordinates": [
          -111.18411579539244,
          45.786560945879636
        ]
      },
      "properties": {
        "OBJECTID": 59,
        "STRUCTURE_ID": 0,
        "ADDRESS": "400",
        "LV_APT": " ",
        "DIRPRE": "",
        "ROADNAME": "JACKRABBIT",
        "ROADTYPE": "RD",
        "DIRSUF": " ",
        "TYPE": "SCHOOL",
        "ELEVATION": 0,
        "COMMENTS": "SADDLE PEAK ELEMENTARY SCHOOL",
        "JURISDICTION": "BELGRADE",
        "YEAR_BUILT": 0,
        "MAPPING_DATE": 1358726400000,
        "UPDATED": 1358726400000,
        "OLD_ADDRESS": " ",
        "OLD_DIRPRE": " ",
        "OLD_ROADNAME": " ",
        "OLD_ROADTYPE": " ",
        "OLD_DIRSUF": " ",
        "CONDO": "N",
        "PUBLICVIEW": "YES",
        "name": "Saddle Peak Elementary School",
        "display_name": "Saddle Peak Elementary School"
      }
    },
    {
      "type": "Feature",
      "geometry": {
        "type": "Point",
        "coordinates": [
          -111.3024,
          45.7525
        ]
      },
      "properties": {
        "name": "Manhattan Christian School",
        "display_name": "Manhattan Christian School",
        "COMMENTS": "MANHATTAN CHRISTIAN SCHOOL",
        "TYPE": "SCHOOL",
        "JURISDICTION": "MANHATTAN",
        "ADDRESS": "8000",
        "ROADNAME": "CHURCHILL",
        "ROADTYPE": "RD"
      }
    }
  ]
}