{"type": "FeatureCollection", "features": [{"type": "Feature", "geometry": {"type": "Point", "coordinates": [-111.3327745, 45.8561701]}, "properties": {"addr:city": "Manhattan", "addr:housenumber": "106", "addr:postcode": "59741", "addr:state": "MT", "addr:street": "East Main Street", "name": "L & F Market", "shop": "supermarket", "website": "https://lffoodfarm.com", "osm_id": 3458156101, "osm_type": "node", "display_name": "L & F Market"}}, {"type": "Feature", "geometry": {"type": "Point", "coordinates": [-111.3304316, 45.8548625]}, "properties": {"name": "Empire Arms & Ammunition", "shop": "firearms", "website": "https://empirearmsandammo.com", "osm_id": 12188311281, "osm_type": "node", "display_name": "Empire Arms & Ammunition"}}, {"type": "Feature", "geometry": {"type": "Point", "coordinates": [-111.3371536, 45.8537053]}, "properties": {"building": "yes", "name": "Thriftway Super Stop", "shop": "convenience", "osm_id": 338690600, "osm_type": "way", "display_name": "Thriftway Super Stop"}}, {"type": "Feature", "geometry": {"type": "Point", "coordinates": [-111.3308513, 45.856916]}, "properties": {"building": "yes", "name": "Korner Lube", "shop": "car_repair", "osm_id": 1316930584, "osm_type": "way", "display_name": "Korner Lube"}}, {"type": "Feature", "geometry": {"type": "Point", "coordinates": [-111.3323597, 45.8558417]}, "properties": {"building": "yes", "name": "Gluten-Free Prairie", "shop": "yes", "website": "https://glutenfreeprairie.com", "osm_id": 1316937082, "osm_type": "way", "display_name": "Gluten-Free Prairie"}}, {"type": "Feature", "geometry": {"type": "Point", "coordinates": [-111.3249874, 45.8466046]}, "properties": {"addr:city": "Manhattan", "addr:housenumber": "70", "addr:postcode": "59741", "addr:state": "MT", "addr:street": "Travis Way", "barrier": "fence", "landuse": "commercial", "name": "Backyard Storage", "phone": "+14062844435", "shop": "storage_rental", "osm_id": 1417260856, "osm_type": "way", "display_name": "Backyard Storage"}}, {"type": "Feature", "geometry": {"type": "Point", "coordinates": [-111.3362264, 45.8504337]}, "properties": {"addr:city": "Manhattan", "addr:housenumber": "130", "addr:postcode": "59741-8391", "addr:state": "MT", "addr:street": "East Wooden Shoe Lane", "brand": "Ace Hardware", "brand:wikidata": "Q4672981", "building": "yes", "name": "Ace Hardware", "opening_hours": "Mo-Sa 08:00-19:00; Su 11:00-18:00", "phone": "+1 406-282-2900", "ref": "17613", "shop": "doityourself", "osm_id": 1447534314, "osm_type": "way", "display_name": "Ace Hardware"}}]}